{
 "type": "FeatureCollection",
 "features": [
  {
   "type": "Feature",
   "geometry": {
    "type": "Polygon",
    "coordinates": [
     [
      [
       56.45389305365686,
       25.152088951116205
      ],
      [
       56.45350021011755,
       25.15118443770562
      ],
      [
       56.45449557916517,
       25.150465655485558
      ],
      [
       56.454100325617766,
       25.150102973385025
      ],
      [
       56.45450119954962,
       25.149201385643572
      ],
      [
       56.4535130800107,
       25.148294678508968
      ],
      [
       56.45351549289427,
       25.147752848533397
      ],
      [
       56.45292102045047,
       25.147570041146174
      ],
      [
       56.45332269885394,
       25.146487846274905
      ],
      [
       56.45253142064127,
       25.145943084956404
      ],
      [
       56.45253383760136,
       25.145401254897866
      ],
      [
       56.451938571506375,
       25.14539905374025
      ],
      [
       56.45174741046041,
       25.143772829290487
      ],
      [
       56.450364136247856,
       25.14250341236383
      ],
      [
       56.450763395234794,
       25.14196305397881
      ],
      [
       56.450168954983276,
       25.141780235947802
      ],
      [
       56.449968920298794,
       25.1421407194901
      ],
      [
       56.450560936650085,
       25.142865368443882
      ],
      [
       56.45036090127239,
       25.14322585245249
      ],
      [
       56.449174443144784,
       25.14231838069743
      ],
      [
       56.44957451654568,
       25.141597415557037
      ],
      [
       56.449183357862005,
       25.14033167043672
      ],
      [
       56.44958099514962,
       25.14015253518256
      ],
      [
       56.44997539442013,
       25.14069583912563
      ],
      [
       56.450374649054964,
       25.140155481586483
      ],
      [
       56.44978264656098,
       25.139430831864527
      ],
      [
       56.450576295827645,
       25.139433777109506
      ],
      [
       56.45038030925048,
       25.138891210858027
      ],
      [
       56.449982677208666,
       25.139070348376926
      ],
      [
       56.44938987215065,
       25.13852630721157
      ],
      [
       56.44998834116203,
       25.137806077546696
      ],
      [
       56.449399591775176,
       25.136358985712743
      ],
      [
       56.448804369838115,
       25.13635677270242
      ],
      [
       56.44860352923906,
       25.136897864863208
      ],
      [
       56.44939149216631,
       25.13816508700603
      ],
      [
       56.448796261474314,
       25.138162873815027
      ],
      [
       56.44879301790948,
       25.138885314136115
      ],
      [
       56.44760254973264,
       25.138880880436293
      ],
      [
       56.448403498250336,
       25.13725834658533
      ],
      [
       56.44800992872997,
       25.136534428410023
      ],
      [
       56.448411612058855,
       25.13545224537196
      ],
      [
       56.44742364693266,
       25.134545498581176
      ],
      [
       56.44762692594077,
       25.133462577387583
      ],
      [
       56.44703253151545,
       25.13327974734276
      ],
      [
       56.447039037583984,
       25.131834865966532
      ],
      [
       56.446049482027085,
       25.131289330607054
      ],
      [
       56.44644872228564,
       25.13074898273743
      ],
      [
       56.446055999073295,
       25.129844449083347
      ],
      [
       56.446654444003784,
       25.129124231656327
      ],
      [
       56.445860861891184,
       25.129121266537123
      ],
      [
       56.44645930433856,
       25.12840104978754
      ],
      [
       56.44587145439973,
       25.126773333305536
      ],
      [
       56.44706505683024,
       25.126055337628944
      ],
      [
       56.44706749572217,
       25.12551350661495
      ],
      [
       56.446669902746294,
       25.125692636220908
      ],
      [
       56.44627556510253,
       25.125149323454405
      ],
      [
       56.4472683233985,
       25.124972415506907
      ],
      [
       56.44727238648531,
       25.124069363631808
      ],
      [
       56.44628044957926,
       25.124065661398994
      ],
      [
       56.44688049064379,
       25.12298422121155
      ],
      [
       56.445889377152795,
       25.122799906132826
      ],
      [
       56.44629184559047,
       25.121537115983497
      ],
      [
       56.44490724266535,
       25.120628870368435
      ],
      [
       56.445707287789844,
       25.119186956143125
      ],
      [
       56.44491948098967,
       25.117919713908147
      ],
      [
       56.4453211271259,
       25.1168375359666
      ],
      [
       56.44453088994748,
       25.11611212311382
      ],
      [
       56.44453333891196,
       25.115570291605984
      ],
      [
       56.44513009056434,
       25.115211298991095
      ],
      [
       56.444734976512926,
       25.114848592590988
      ],
      [
       56.444939058619134,
       25.113585061501013
      ],
      [
       56.44533335422222,
       25.11412837793062
      ],
      [
       56.44612765334452,
       25.113950733629427
      ],
      [
       56.44612439765387,
       25.114673175984326
      ],
      [
       56.445327648464506,
       25.11539265180462
      ],
      [
       56.44572032227261,
       25.11629718826234
      ],
      [
       56.446710570089365,
       25.116662114283606
      ],
      [
       56.44611218769301,
       25.117382334184743
      ],
      [
       56.44710244540555,
       25.11774725770453
      ],
      [
       56.44709919488477,
       25.11846969980877
      ],
      [
       56.44848865415608,
       25.118294261770654
      ],
      [
       56.448085408243244,
       25.11973766951904
      ],
      [
       56.44907245165876,
       25.12082502228088
      ],
      [
       56.448277300818226,
       25.121183292000474
      ],
      [
       56.449267595660004,
       25.121548201501867
      ],
      [
       56.44866758268371,
       25.122629652038615
      ],
      [
       56.449263547702415,
       25.122451253988295
      ],
      [
       56.44965869935609,
       25.122813948592317
      ],
      [
       56.44945788586591,
       25.123355043335113
      ],
      [
       56.45045143335183,
       25.122997503198615
      ],
      [
       56.45084578298014,
       25.123540805208478
      ],
      [
       56.4514409430158,
       25.123543008971293
      ],
      [
       56.451239329299725,
       25.124264716692856
      ],
      [
       56.4490603032947,
       25.123534179583462
      ],
      [
       56.448858675674465,
       25.124255883830557
      ],
      [
       56.44945141074705,
       25.12479992695446
      ],
      [
       56.44885300357472,
       25.12552015673164
      ],
      [
       56.448257834219966,
       25.125517942415716
      ],
      [
       56.44826026779163,
       25.124976111253194
      ],
      [
       56.447863490010846,
       25.124974633751204
      ],
      [
       56.447660228668695,
       25.12605755677852
      ],
      [
       56.448252966865034,
       25.126601604621253
      ],
      [
       56.44924492457846,
       25.12660529400101
      ],
      [
       56.44884408950001,
       25.127506870852372
      ],
      [
       56.449035191095554,
       25.12913310152035
      ],
      [
       56.44943198238724,
       25.1291345761132
      ],
      [
       56.449237636142456,
       25.128230787281794
      ],
      [
       56.45003283032815,
       25.12787251347647
      ],
      [
       56.45022799035539,
       25.128595691034572
      ],
      [
       56.450029595549466,
       25.1285949549512
      ],
      [
       56.45002878683526,
       25.12877556530882
      ],
      [
       56.44983039174546,
       25.12877482895388
      ],
      [
       56.449829582731745,
       25.12895543930106
      ],
      [
       56.450623972151554,
       25.12877777278032
      ],
      [
       56.451415132618806,
       25.129322543530286
      ],
      [
       56.451410292280926,
       25.130406205755612
      ],
      [
       56.45279022467041,
       25.132398054297013
      ],
      [
       56.45258699300753,
       25.133480983529754
      ],
      [
       56.45298138491443,
       25.134024279820547
      ],
      [
       56.45198614248636,
       25.134743055551894
      ],
      [
       56.45139173505299,
       25.134560242810018
      ],
      [
       56.451992590701636,
       25.133298173255287
      ],
      [
       56.45120301662041,
       25.13239218480554
      ],
      [
       56.451403031248006,
       25.132031698794865
      ],
      [
       56.450016655184584,
       25.131484720142033
      ],
      [
       56.45061912495298,
       25.129861434941265
      ],
      [
       56.449628759394884,
       25.12949653367149
      ],
      [
       56.44823917449366,
       25.1296719800051
      ],
      [
       56.4482367403106,
       25.13021381082241
      ],
      [
       56.448634345858935,
       25.13003467733202
      ],
      [
       56.448831121881874,
       25.130396635890254
      ],
      [
       56.44803428437039,
       25.13111612327273
      ],
      [
       56.4488270690901,
       25.131299687232225
      ],
      [
       56.44902303733105,
       25.131842255769435
      ],
      [
       56.447832637388686,
       25.131837825074783
      ],
      [
       56.44862461551691,
       25.13220200040079
      ],
      [
       56.44782695277539,
       25.133102096463624
      ],
      [
       56.44921738716138,
       25.13274604451415
      ],
      [
       56.44980935484841,
       25.133470696542183
      ],
      [
       56.449609333156026,
       25.13383118021303
      ],
      [
       56.45060215754515,
       25.13365425124986
      ],
      [
       56.4503972875408,
       25.13509839737118
      ],
      [
       56.451382051384066,
       25.13672756556109
      ],
      [
       56.45197808151645,
       25.136549158024295
      ],
      [
       56.45198130599786,
       25.135826717088452
      ],
      [
       56.451188487127794,
       25.135643169541222
      ],
      [
       56.45138850728807,
       25.13528268379786
      ],
      [
       56.45238053564214,
       25.13528635337342
      ],
      [
       56.45257572045003,
       25.136009527552442
      ],
      [
       56.453171745438674,
       25.135831115108545
      ],
      [
       56.453175767111155,
       25.134928063659604
      ],
      [
       56.45376937566457,
       25.135291479622595
      ],
      [
       56.453567754873625,
       25.13601318927859
      ],
      [
       56.45277332237,
       25.136190870689077
      ],
      [
       56.453365327526875,
       25.136915508810688
      ],
      [
       56.45296287779443,
       25.138178315940937
      ],
      [
       56.45217487753394,
       25.136911112169052
      ],
      [
       56.45138124436098,
       25.136908175761576
      ],
      [
       56.45098119731632,
       25.137629146673596
      ],
      [
       56.45137882324496,
       25.137450006336465
      ],
      [
       56.45177402861787,
       25.137812695492602
      ],
      [
       56.45157319851192,
       25.13835379175442
      ],
      [
       56.452364424129506,
       25.138898557849565
      ],
      [
       56.45216359473557,
       25.139439654846697
      ],
      [
       56.45334361376004,
       25.141791984167075
      ],
      [
       56.45274675468365,
       25.142151006789838
      ],
      [
       56.45294275669542,
       25.14269356993761
      ],
      [
       56.45373723124648,
       25.14251588847856
      ],
      [
       56.45432927191644,
       25.143240522741937
      ],
      [
       56.453930024162624,
       25.14378089083957
      ],
      [
       56.45472289974129,
       25.143964424469402
      ],
      [
       56.45471888780372,
       25.144867475050486
      ],
      [
       56.4541204108869,
       25.14558772303006
      ],
      [
       56.45491249623142,
       25.14595186588396
      ],
      [
       56.45471086334733,
       25.146673575880598
      ],
      [
       56.45550215611524,
       25.147218325744646
      ],
      [
       56.45490206747825,
       25.14829979660892
      ],
      [
       56.45609182795295,
       25.148484783246435
      ],
      [
       56.456680712046,
       25.149931848431837
      ],
      [
       56.45707837018913,
       25.149752693621885
      ],
      [
       56.45767046490742,
       25.15047731474153
      ],
      [
       56.45746804160107,
       25.151379638232076
      ],
      [
       56.45647748243095,
       25.151014780539498
      ],
      [
       56.45488762550437,
       25.1515507763774
      ],
      [
       56.454886823098875,
       25.15173138632247
      ],
      [
       56.45468839074593,
       25.151730655849438
      ],
      [
       56.454488352398265,
       25.152091144963588
      ],
      [
       56.45389305365686,
       25.152088951116205
      ]
     ],
     [
      [
       56.45449076139035,
       25.15154931517743
      ],
      [
       56.45468839074593,
       25.151730655849438
      ],
      [
       56.45468919344349,
       25.151550045910334
      ],
      [
       56.45449076139035,
       25.15154931517743
      ]
     ],
     [
      [
       56.45409711152464,
       25.15082541318501
      ],
      [
       56.45429473914343,
       25.151006754370588
      ],
      [
       56.454295542394064,
       25.150826144425697
      ],
      [
       56.45409711152464,
       25.15082541318501
      ]
     ],
     [
      [
       56.454890835048865,
       25.150828336552834
      ],
      [
       56.45508846386685,
       25.151009676698976
      ],
      [
       56.455089265949304,
       25.150829066730235
      ],
      [
       56.454890835048865,
       25.150828336552834
      ]
     ],
     [
      [
       56.457073575379226,
       25.150836353884166
      ],
      [
       56.45727120749476,
       25.151017691171692
      ],
      [
       56.45727200636472,
       25.150837081137546
      ],
      [
       56.457073575379226,
       25.150836353884166
      ]
     ],
     [
      [
       56.45449557916517,
       25.150465655485558
      ],
      [
       56.454890835048865,
       25.150828336552834
      ],
      [
       56.45489243977462,
       25.15046711661398
      ],
      [
       56.45449557916517,
       25.150465655485558
      ]
     ],
     [
      [
       56.45648228254387,
       25.1499311204107
      ],
      [
       56.45667991233853,
       25.150112458470304
      ],
      [
       56.456680712046,
       25.149931848431837
      ],
      [
       56.45648228254387,
       25.1499311204107
      ]
     ],
     [
      [
       56.455889396664205,
       25.149387104681782
      ],
      [
       56.456087024706704,
       25.14956844351643
      ],
      [
       56.456087825267076,
       25.1493878334825
      ],
      [
       56.455889396664205,
       25.149387104681782
      ]
     ],
     [
      [
       56.45490046293846,
       25.148661016654046
      ],
      [
       56.45509808834507,
       25.148842356781817
      ],
      [
       56.455098890334575,
       25.14866174675994
      ],
      [
       56.45490046293846,
       25.148661016654046
      ]
     ],
     [
      [
       56.454110770562956,
       25.147755043545803
      ],
      [
       56.45471086334733,
       25.146673575880598
      ],
      [
       56.45391797036762,
       25.146490041959204
      ],
      [
       56.45351790570793,
       25.147211018517986
      ],
      [
       56.454110770562956,
       25.147755043545803
      ]
     ],
     [
      [
       56.453127494219196,
       25.14576467374304
      ],
      [
       56.45332511238039,
       25.145946016184443
      ],
      [
       56.453325916873666,
       25.14576540614543
      ],
      [
       56.453127494219196,
       25.14576467374304
      ]
     ],
     [
      [
       56.45352594791524,
       25.145404918178798
      ],
      [
       56.45372356610751,
       25.145586260097534
      ],
      [
       56.45372437000133,
       25.145405650037723
      ],
      [
       56.45352594791524,
       25.145404918178798
      ]
     ],
     [
      [
       56.45233622149166,
       25.145219911422036
      ],
      [
       56.45293148675747,
       25.14522211096717
      ],
      [
       56.45333074367017,
       25.144681745818385
      ],
      [
       56.452337833327825,
       25.14485869136399
      ],
      [
       56.45233622149166,
       25.145219911422036
      ]
     ],
     [
      [
       56.45392680998804,
       25.144503331235537
      ],
      [
       56.45412442735879,
       25.144684672626997
      ],
      [
       56.4541252306299,
       25.144504062533105
      ],
      [
       56.45392680998804,
       25.144503331235537
      ]
     ],
     [
      [
       56.45254108806142,
       25.143775764483173
      ],
      [
       56.452738702197514,
       25.143957107686777
      ],
      [
       56.45273950748113,
       25.143776497617008
      ],
      [
       56.45254108806142,
       25.143775764483173
      ]
     ],
     [
      [
       56.45293792690862,
       25.143777230485103
      ],
      [
       56.45313554164414,
       25.143958573169204
      ],
      [
       56.453136346343875,
       25.14377796308747
      ],
      [
       56.45293792690862,
       25.143777230485103
      ]
     ],
     [
      [
       56.45373160469629,
       25.143780159300146
      ],
      [
       56.45392922063062,
       25.143961500945203
      ],
      [
       56.453930024162624,
       25.14378089083957
      ],
      [
       56.45373160469629,
       25.143780159300146
      ]
     ],
     [
      [
       56.45293953686865,
       25.143416010320315
      ],
      [
       56.453137151035854,
       25.14359735300131
      ],
      [
       56.45313795572005,
       25.143416742910723
      ],
      [
       56.45293953686865,
       25.143416010320315
      ]
     ],
     [
      [
       56.451749830643536,
       25.143230999144436
      ],
      [
       56.451947442728326,
       25.143412343382344
      ],
      [
       56.45194824915632,
       25.14323173332324
      ],
      [
       56.451749830643536,
       25.143230999144436
      ]
     ],
     [
      [
       56.45234508620524,
       25.14323320088364
      ],
      [
       56.45254269918917,
       25.14341454434232
      ],
      [
       56.45254350474138,
       25.143233934265254
      ],
      [
       56.45234508620524,
       25.14323320088364
      ]
     ],
     [
      [
       56.45194986198892,
       25.142870513191752
      ],
      [
       56.45214747380516,
       25.143051857166782
      ],
      [
       56.452148279925645,
       25.14287124709283
      ],
      [
       56.45194986198892,
       25.142870513191752
      ]
     ],
     [
      [
       56.45155464010795,
       25.142507824467195
      ],
      [
       56.45175225075652,
       25.14268916895855
      ],
      [
       56.45175305744526,
       25.142508558887737
      ],
      [
       56.45155464010795,
       25.142507824467195
      ]
     ],
     [
      [
       56.45175386412622,
       25.142327948812493
      ],
      [
       56.45214989214327,
       25.14251002693166
      ],
      [
       56.45215069824039,
       25.14232941684443
      ],
      [
       56.45175386412622,
       25.142327948812493
      ]
     ],
     [
      [
       56.45096100383219,
       25.14214439950432
      ],
      [
       56.452151504329734,
       25.142148806752772
      ],
      [
       56.45235475572775,
       25.141065879685343
      ],
      [
       56.45175951067472,
       25.141063678161817
      ],
      [
       56.451161843162154,
       25.141603304498418
      ],
      [
       56.45096100383219,
       25.14214439950432
      ]
     ],
     [
      [
       56.450964235117354,
       25.141421959237338
      ],
      [
       56.451161843162154,
       25.141603304498418
      ],
      [
       56.45116265067984,
       25.141422694419024
      ],
      [
       56.450964235117354,
       25.141421959237338
      ]
     ],
     [
      [
       56.450171381914814,
       25.141238405799726
      ],
      [
       56.45036898847671,
       25.141419752098024
      ],
      [
       56.450369797154174,
       25.141239142038234
      ],
      [
       56.450171381914814,
       25.141238405799726
      ]
     ],
     [
      [
       56.450768243820285,
       25.14087939356123
      ],
      [
       56.45096585071312,
       25.14106073907729
      ],
      [
       56.450966658499304,
       25.140880128990617
      ],
      [
       56.450768243820285,
       25.14087939356123
      ]
     ],
     [
      [
       56.45156190258314,
       25.14088233368457
      ],
      [
       56.45175951067472,
       25.141063678161817
      ],
      [
       56.45176031729334,
       25.140883068051153
      ],
      [
       56.45156190258314,
       25.14088233368457
      ]
     ],
     [
      [
       56.45057144586558,
       25.140517437703547
      ],
      [
       56.450768243820285,
       25.14087939356123
      ],
      [
       56.45096827404825,
       25.140518908803994
      ],
      [
       56.45057144586558,
       25.140517437703547
      ]
     ],
     [
      [
       56.45037545767776,
       25.139974871495703
      ],
      [
       56.450771476054506,
       25.1401569531943
      ],
      [
       56.450772284093546,
       25.1399763430915
      ],
      [
       56.45037545767776,
       25.139974871495703
      ]
     ],
     [
      [
       56.45136752377577,
       25.13997854849254
      ],
      [
       56.45176435026958,
       25.139980017431448
      ],
      [
       56.451765963405535,
       25.139618797152572
      ],
      [
       56.45156755073848,
       25.13961806282795
      ],
      [
       56.45136752377577,
       25.13997854849254
      ]
     ],
     [
      [
       56.450377074899905,
       25.139613651300852
      ],
      [
       56.450574679204855,
       25.13979499732523
      ],
      [
       56.450575487520155,
       25.13961438721958
      ],
      [
       56.450377074899905,
       25.139613651300852
      ]
     ],
     [
      [
       56.45117234028373,
       25.139255373121063
      ],
      [
       56.45156755073848,
       25.13961806282795
      ],
      [
       56.451569164427,
       25.139256842543364
      ],
      [
       56.45117234028373,
       25.139255373121063
      ]
     ],
     [
      [
       56.45077632417168,
       25.139073292511103
      ],
      [
       56.45097312050784,
       25.1394352481379
      ],
      [
       56.451173147700025,
       25.139074762984123
      ],
      [
       56.45077632417168,
       25.139073292511103
      ]
     ],
     [
      [
       56.45117556990211,
       25.138532932546745
      ],
      [
       56.45137317370138,
       25.138714277522958
      ],
      [
       56.45137398080242,
       25.138533667366737
      ],
      [
       56.45117556990211,
       25.138532932546745
      ]
     ],
     [
      [
       56.45157239171053,
       25.138534401921063
      ],
      [
       56.451769996109086,
       25.13871574637792
      ],
      [
       56.45177080262642,
       25.138535136209715
      ],
      [
       56.45157239171053,
       25.138534401921063
      ]
     ],
     [
      [
       56.45018432436196,
       25.138348644337086
      ],
      [
       56.45058033724799,
       25.138530726492736
      ],
      [
       56.45058114550864,
       25.1383501163561
      ],
      [
       56.45018432436196,
       25.138348644337086
      ]
     ],
     [
      [
       56.44978831266676,
       25.13816656113837
      ],
      [
       56.44998591380034,
       25.13834790792907
      ],
      [
       56.44998672292873,
       25.138167297806035
      ],
      [
       56.44978831266676,
       25.13816656113837
      ]
     ],
     [
      [
       56.45097796668655,
       25.138351587312435
      ],
      [
       56.451374787895666,
       25.1383530572061
      ],
      [
       56.451178799395706,
       25.137810491901604
      ],
      [
       56.45098038967058,
       25.137809756839943
      ],
      [
       56.45097796668655,
       25.138351587312435
      ]
     ],
     [
      [
       56.44840187539457,
       25.13761956677489
      ],
      [
       56.448797883209735,
       25.137801653627918
      ],
      [
       56.4487986940657,
       25.137621043527727
      ],
      [
       56.44840187539457,
       25.13761956677489
      ]
     ],
     [
      [
       56.450189986053616,
       25.137084373340816
      ],
      [
       56.45038758608236,
       25.137265719602702
      ],
      [
       56.45038839458019,
       25.137085109441088
      ],
      [
       56.450189986053616,
       25.137084373340816
      ]
     ],
     [
      [
       56.45257088888724,
       25.137093189010884
      ],
      [
       56.452768492511474,
       25.137274532156866
      ],
      [
       56.45276929750733,
       25.1370939219233
      ],
      [
       56.45257088888724,
       25.137093189010884
      ]
     ],
     [
      [
       56.45058761131275,
       25.136905235103658
      ],
      [
       56.45078521165674,
       25.13708658084467
      ],
      [
       56.4507860195631,
       25.136905970666618
      ],
      [
       56.45058761131275,
       25.136905235103658
      ]
     ],
     [
      [
       56.44999400473243,
       25.136541806499547
      ],
      [
       56.4501916036095,
       25.136723153016327
      ],
      [
       56.45019241237571,
       25.13654254284744
      ],
      [
       56.44999400473243,
       25.136541806499547
      ]
     ],
     [
      [
       56.450193221134114,
       25.13636193267413
      ],
      [
       56.4503908200268,
       25.136543278929686
      ],
      [
       56.450391628493385,
       25.13636266875036
      ],
      [
       56.450193221134114,
       25.13636193267413
      ]
     ],
     [
      [
       56.44920280486651,
       25.135997028008543
      ],
      [
       56.44940040169303,
       25.13617837555907
      ],
      [
       56.44940121160307,
       25.135997765400965
      ],
      [
       56.44920280486651,
       25.135997028008543
      ]
     ],
     [
      [
       56.44860839577327,
       25.135814204099006
      ],
      [
       56.44880599141689,
       25.13599555242678
      ],
      [
       56.448806802194525,
       25.13581494228232
      ],
      [
       56.44860839577327,
       25.135814204099006
      ]
     ],
     [
      [
       56.44881004522675,
       25.135092501660214
      ],
      [
       56.44900764003412,
       25.135273849721983
      ],
      [
       56.44900845048862,
       25.135093239553793
      ],
      [
       56.44881004522675,
       25.135092501660214
      ]
     ],
     [
      [
       56.448413234726495,
       25.13509102507617
      ],
      [
       56.44881004522675,
       25.135092501660214
      ],
      [
       56.44881166669587,
       25.1347312813226
      ],
      [
       56.44861326202542,
       25.134730543175447
      ],
      [
       56.448413234726495,
       25.13509102507617
      ]
     ],
     [
      [
       56.44801804806107,
       25.13472832714023
      ],
      [
       56.44861326202542,
       25.134730543175447
      ],
      [
       56.44881409884081,
       25.134189450782987
      ],
      [
       56.44801967183317,
       25.13436710683316
      ],
      [
       56.44801804806107,
       25.13472832714023
      ]
     ],
     [
      [
       56.44782207994373,
       25.134185757481433
      ],
      [
       56.44801967183317,
       25.13436710683316
      ],
      [
       56.44802048370746,
       25.134186496672978
      ],
      [
       56.44782207994373,
       25.134185757481433
      ]
     ],
     [
      [
       56.44960852363166,
       25.13401179043026
      ],
      [
       56.450003712819296,
       25.13437448419982
      ],
      [
       56.45000452177573,
       25.13419387397941
      ],
      [
       56.44960852363166,
       25.13401179043026
      ]
     ],
     [
      [
       56.44881490954013,
       25.13400884059426
      ],
      [
       56.44901250264373,
       25.13419018864644
      ],
      [
       56.44901331305127,
       25.134009578451682
      ],
      [
       56.44881490954013,
       25.13400884059426
      ]
     ],
     [
      [
       56.44782451639486,
       25.13364392699245
      ],
      [
       56.44822051062053,
       25.13382601525321
      ],
      [
       56.448221322179506,
       25.133645405073718
      ],
      [
       56.44782451639486,
       25.13364392699245
      ]
     ],
     [
      [
       56.44842053634296,
       25.13346553352599
      ],
      [
       56.448618127995516,
       25.133646882092535
      ],
      [
       56.44861893896311,
       25.133466271896562
      ],
      [
       56.44842053634296,
       25.13346553352599
      ]
     ],
     [
      [
       56.44921495695499,
       25.13328787519614
      ],
      [
       56.44941254952201,
       25.133469222722756
      ],
      [
       56.44941335931469,
       25.133288612498248
      ],
      [
       56.44921495695499,
       25.13328787519614
      ]
     ],
     [
      [
       56.44664467912527,
       25.13129155426602
      ],
      [
       56.446842264674494,
       25.131472905149263
      ],
      [
       56.44684307817373,
       25.13129229495451
      ],
      [
       56.44664467912527,
       25.13129155426602
      ]
     ],
     [
      [
       56.447638299087146,
       25.130934034601484
      ],
      [
       56.44783588556655,
       25.131115384183786
      ],
      [
       56.447836697591406,
       25.13093477394997
      ],
      [
       56.447638299087146,
       25.130934034601484
      ]
     ],
     [
      [
       56.44664874796223,
       25.13038850325611
      ],
      [
       56.44684551862429,
       25.130750464343695
      ],
      [
       56.446847145552034,
       25.13038924391435
      ],
      [
       56.44664874796223,
       25.13038850325611
      ]
     ],
     [
      [
       56.45061750915769,
       25.130222655626174
      ],
      [
       56.450815098994774,
       25.130404001308758
      ],
      [
       56.450815906612405,
       25.13022339096694
      ],
      [
       56.45061750915769,
       25.130222655626174
      ]
     ],
     [
      [
       56.45002636064577,
       25.129317396355123
      ],
      [
       56.450422344437,
       25.129499478656346
      ],
      [
       56.45042315259904,
       25.12931886830441
      ],
      [
       56.45002636064577,
       25.129317396355123
      ]
     ],
     [
      [
       56.44943198238724,
       25.1291345761132
      ],
      [
       56.44962956872376,
       25.1293159233436
      ],
      [
       56.449630378044816,
       25.129135313011282
      ],
      [
       56.44943198238724,
       25.1291345761132
      ]
     ],
     [
      [
       56.44665525769256,
       25.128943621410095
      ],
      [
       56.446852839551596,
       25.12912497227224
      ],
      [
       56.44685365294867,
       25.12894436201995
      ],
      [
       56.44665525769256,
       25.128943621410095
      ]
     ],
     [
      [
       56.44824323130862,
       25.12876892855439
      ],
      [
       56.44844081528021,
       25.12895027733879
      ],
      [
       56.44844162633583,
       25.12876966703376
      ],
      [
       56.44824323130862,
       25.12876892855439
      ]
     ],
     [
      [
       56.449632805961066,
       25.128593481987792
      ],
      [
       56.44983039174546,
       25.12877482895388
      ],
      [
       56.449831200751355,
       25.12859421860227
      ],
      [
       56.449632805961066,
       25.128593481987792
      ]
     ],
     [
      [
       56.44725288187835,
       25.128404011623296
      ],
      [
       56.44745046378451,
       25.128585361702058
      ],
      [
       56.44745127628293,
       25.12840475141836
      ],
      [
       56.44725288187835,
       25.128404011623296
      ]
     ],
     [
      [
       56.448244853979745,
       25.12840770794312
      ],
      [
       56.448442437383605,
       25.128589056724305
      ],
      [
       56.44844324842355,
       25.128408446410436
      ],
      [
       56.448244853979745,
       25.12840770794312
      ]
     ],
     [
      [
       56.44665851236905,
       25.12822118038086
      ],
      [
       56.44685609309274,
       25.128402531236517
      ],
      [
       56.44685690645837,
       25.128221920966524
      ],
      [
       56.44665851236905,
       25.12822118038086
      ]
     ],
     [
      [
       56.448048082766924,
       25.12804574859335
      ],
      [
       56.44824566530355,
       25.128227097630848
      ],
      [
       56.44824647661951,
       25.128046487314155
      ],
      [
       56.448048082766924,
       25.12804574859335
      ]
     ],
     [
      [
       56.44824972180498,
       25.127324046003114
      ],
      [
       56.448447303505745,
       25.12750539477467
      ],
      [
       56.44844811449868,
       25.127324784434236
      ],
      [
       56.44824972180498,
       25.127324046003114
      ]
     ],
     [
      [
       56.446663394147954,
       25.127137518704238
      ],
      [
       56.446860973168704,
       25.127318869550162
      ],
      [
       56.4468617864872,
       25.127138259253613
      ],
      [
       56.446663394147954,
       25.127137518704238
      ]
     ],
     [
      [
       56.44706017883429,
       25.127138999537458
      ],
      [
       56.44725775845411,
       25.127320349864405
      ],
      [
       56.447258571189245,
       25.127139739555762
      ],
      [
       56.44706017883429,
       25.127138999537458
      ]
     ],
     [
      [
       56.44844811449868,
       25.127324784434236
      ],
      [
       56.44884571031133,
       25.12714565014298
      ],
      [
       56.44864893925698,
       25.126783691533902
      ],
      [
       56.448252155611776,
       25.12678221497336
      ],
      [
       56.44844811449868,
       25.127324784434236
      ]
     ],
     [
      [
       56.447855371997925,
       25.12678073735069
      ],
      [
       56.448052140687565,
       25.12714269697365
      ],
      [
       56.44805376380093,
       25.126781476294788
      ],
      [
       56.447855371997925,
       25.12678073735069
      ]
     ],
     [
      [
       56.447062617867616,
       25.12659716860311
      ],
      [
       56.447458588415444,
       25.126779258665902
      ],
      [
       56.44745940083536,
       25.126598648337936
      ],
      [
       56.447062617867616,
       25.12659716860311
      ]
     ],
     [
      [
       56.44666664851001,
       25.126415077497974
      ],
      [
       56.44686422639552,
       25.126596428337407
      ],
      [
       56.44686503968258,
       25.126415818023162
      ],
      [
       56.44666664851001,
       25.126415077497974
      ]
     ],
     [
      [
       56.44746183804803,
       25.126056817327516
      ],
      [
       56.44765941656398,
       25.12623816712579
      ],
      [
       56.447660228668695,
       25.12605755677852
      ],
      [
       56.44746183804803,
       25.126056817327516
      ]
     ],
     [
      [
       56.4488643473906,
       25.12299161071265
      ],
      [
       56.44925949954926,
       25.123354306364096
      ],
      [
       56.44926111883399,
       25.122993085427048
      ],
      [
       56.4488643473906,
       25.12299161071265
      ]
     ],
     [
      [
       56.44787241891916,
       25.122987919280657
      ],
      [
       56.44806999320966,
       25.123169268532596
      ],
      [
       56.44807080459777,
       25.122988658098027
      ],
      [
       56.44787241891916,
       25.122987919280657
      ]
     ],
     [
      [
       56.44628777576344,
       25.122440168017164
      ],
      [
       56.446485346807016,
       25.122621519339763
      ],
      [
       56.44648616050441,
       25.122440908940252
      ],
      [
       56.44628777576344,
       25.122440168017164
      ]
     ],
     [
      [
       56.44787566555962,
       25.12226547752225
      ],
      [
       56.448073238715075,
       25.122446826767757
      ],
      [
       56.448074050071824,
       25.122266216315477
      ],
      [
       56.44787566555962,
       25.12226547752225
      ]
     ],
     [
      [
       56.44807486142074,
       25.122085605858782
      ],
      [
       56.44827243459187,
       25.122266954843234
      ],
      [
       56.44827324564919,
       25.122086344380502
      ],
      [
       56.44807486142074,
       25.122085605858782
      ]
     ],
     [
      [
       56.44688780853017,
       25.12135872742742
      ],
      [
       56.447085378769714,
       25.121540077962006
      ],
      [
       56.44708619154519,
       25.121359467517806
      ],
      [
       56.44688780853017,
       25.12135872742742
      ]
     ],
     [
      [
       56.44807891804772,
       25.12118255350891
      ],
      [
       56.4482764898001,
       25.121363902485335
      ],
      [
       56.448277300818226,
       25.121183292000474
      ],
      [
       56.44807891804772,
       25.12118255350891
      ]
     ],
     [
      [
       56.44788297004189,
       25.120639983306983
      ],
      [
       56.44808054064363,
       25.120821332537993
      ],
      [
       56.44808135192984,
       25.120640722045902
      ],
      [
       56.44788297004189,
       25.120639983306983
      ]
     ],
     [
      [
       56.446694305509844,
       25.12027432438598
      ],
      [
       56.44708944256856,
       25.12063702569674
      ],
      [
       56.447091068033124,
       25.120275804759654
      ],
      [
       56.446694305509844,
       25.12027432438598
      ]
     ],
     [
      [
       56.44709188075363,
       25.12009519428448
      ],
      [
       56.44728944930655,
       25.120276544548314
      ],
      [
       56.44729026173549,
       25.1200959340671
      ],
      [
       56.44709188075363,
       25.12009519428448
      ]
     ],
     [
      [
       56.44709350617108,
       25.119733973320848
      ],
      [
       56.44729107415658,
       25.119915323581452
      ],
      [
       56.447291886569815,
       25.119734713091376
      ],
      [
       56.44709350617108,
       25.119733973320848
      ]
     ],
     [
      [
       56.446896751749335,
       25.119372012315637
      ],
      [
       56.447688647390834,
       25.1197361918361
      ],
      [
       56.447691894632875,
       25.119013749783253
      ],
      [
       56.44709756957727,
       25.118830920834345
      ],
      [
       56.446896751749335,
       25.119372012315637
      ]
     ],
     [
      [
       56.447694329982035,
       25.11847191819717
      ],
      [
       56.44789189687981,
       25.11865326766826
      ],
      [
       56.44789270836349,
       25.118472657129104
      ],
      [
       56.447694329982035,
       25.11847191819717
      ]
     ],
     [
      [
       56.44533172404512,
       25.1144895990596
      ],
      [
       56.44552928111022,
       25.11467095160725
      ],
      [
       56.44553009591911,
       25.11449034104333
      ],
      [
       56.44533172404512,
       25.1144895990596
      ]
     ]
    ]
   },
   "properties": {
    "value": 1,
    "area_km2": 1.0912,
    "incident_id": "BB-AE-2024-001",
    "observation_utc": "2024-02-17T06:49:41.024000Z",
    "hypothesis": "BLOOM_LIKE (bloom-like optical anomaly, not a confirmed bloom)",
    "rule": "pipeline.detect thresholds at 20 m: NDCI robust z >= 3 and seasonal percentile >= 95, MCI z >= 1, 1-pixel opening; pieces >= 0.125 km2 or within 1.5 km of the DETECT candidate (DETECT minimum region 0.5 km2)",
    "quantity_kind": "PROXY",
    "sensor": "Sentinel-2A MSI L2A",
    "attribution": "Contains modified Copernicus Sentinel data 2024, 2018-2026"
   }
  },
  {
   "type": "Feature",
   "geometry": {
    "type": "Polygon",
    "coordinates": [
     [
      [
       56.452433681552606,
       25.123366066041545
      ],
      [
       56.45204093643369,
       25.122461547002537
      ],
      [
       56.45144255590065,
       25.123181787910898
      ],
      [
       56.451046590716174,
       25.12299970850034
      ],
      [
       56.45104981869405,
       25.12227726635676
      ],
      [
       56.452043352984674,
       25.121919715271734
      ],
      [
       56.45204657494369,
       25.12119727290205
      ],
      [
       56.45244253590997,
       25.1213793496122
      ],
      [
       56.45184980354072,
       25.120835318254894
      ],
      [
       56.4520514076487,
       25.120113609214794
      ],
      [
       56.45105950187914,
       25.120109939501262
      ],
      [
       56.450467589488504,
       25.119385292133025
      ],
      [
       56.45146190808798,
       25.11884713380578
      ],
      [
       56.45225381440835,
       25.11921128913683
      ],
      [
       56.45186027763538,
       25.118487380027386
      ],
      [
       56.4520634881855,
       25.117404449299844
      ],
      [
       56.45106918394149,
       25.117942612008644
      ],
      [
       56.45007810410515,
       25.117758325396085
      ],
      [
       56.45027971315218,
       25.11703661855809
      ],
      [
       56.449287023134275,
       25.11721354802727
      ],
      [
       56.4488878404139,
       25.117753905485856
      ],
      [
       56.44849189648263,
       25.117571819479693
      ],
      [
       56.44969105484313,
       25.115589525476267
      ],
      [
       56.44909350465237,
       25.116129147264783
      ],
      [
       56.448696755382805,
       25.116127672477276
      ],
      [
       56.44869756559069,
       25.115947061852058
      ],
      [
       56.44849919125915,
       25.11594632406623
      ],
      [
       56.44810000934887,
       25.11648667950649
      ],
      [
       56.447707317318596,
       25.115582149065506
      ],
      [
       56.4471130087304,
       25.115399320376845
      ],
      [
       56.44791137032376,
       25.114318613507372
      ],
      [
       56.447517062589704,
       25.113775303742713
      ],
      [
       56.44871133792704,
       25.11287668054644
      ],
      [
       56.4483178417344,
       25.11215276211662
      ],
      [
       56.44751949813085,
       25.113233471789837
      ],
      [
       56.44732762498125,
       25.111787847148207
      ],
      [
       56.44673414814676,
       25.111424406491725
      ],
      [
       56.44713494370365,
       25.110522832768858
      ],
      [
       56.447729228896016,
       25.110705661087703
      ],
      [
       56.44793165035902,
       25.109803346046803
      ],
      [
       56.44713981736491,
       25.109439168418024
      ],
      [
       56.44634066818025,
       25.110700482951536
      ],
      [
       56.44554801972267,
       25.110516907517933
      ],
      [
       56.44614474365583,
       25.11015791010494
      ],
      [
       56.44614799855998,
       25.109435467307666
      ],
      [
       56.44674390265156,
       25.10925707804132
      ],
      [
       56.44575615671,
       25.108350320750326
      ],
      [
       56.44575859941224,
       25.10780848856264
      ],
      [
       56.44635693608684,
       25.107088268401768
      ],
      [
       56.4467528432872,
       25.107270359735555
      ],
      [
       56.44655285694062,
       25.10763084112391
      ],
      [
       56.447147939505676,
       25.107633060812777
      ],
      [
       56.44715118814218,
       25.10691061764683
      ],
      [
       56.44675365602512,
       25.107089748953946
      ],
      [
       56.44655773509277,
       25.106547176457287
      ],
      [
       56.445763484604235,
       25.106724824067836
      ],
      [
       56.446163457636416,
       25.106003863054113
      ],
      [
       56.44556919748686,
       25.105821028773036
      ],
      [
       56.44557245513211,
       25.105098585623814
      ],
      [
       56.44596998240688,
       25.104919457354583
      ],
      [
       56.446165898283716,
       25.10546203065758
      ],
      [
       56.4465642388556,
       25.105102289987418
      ],
      [
       56.44557489828338,
       25.104556753215455
      ],
      [
       56.44597405133378,
       25.10401640323585
      ],
      [
       56.44518878034115,
       25.10220732891092
      ],
      [
       56.44558792722714,
       25.10166697969862
      ],
      [
       56.44459780276313,
       25.10130204757091
      ],
      [
       56.44479859948603,
       25.100760957558837
      ],
      [
       56.44539283412696,
       25.100943794613375
      ],
      [
       56.44539609208717,
       25.10022135101075
      ],
      [
       56.44441577017917,
       25.09768908676644
      ],
      [
       56.44461656147012,
       25.09714799665104
      ],
      [
       56.44382563602838,
       25.096603191320824
      ],
      [
       56.44403132587456,
       25.09497843604761
      ],
      [
       56.445420522773794,
       25.094803021735757
      ],
      [
       56.44561723498404,
       25.095164985146422
      ],
      [
       56.44521973903837,
       25.095344113235928
      ],
      [
       56.44521810991675,
       25.095705335272758
      ],
      [
       56.44620981783513,
       25.09570904071385
      ],
      [
       56.44640572094228,
       25.096251614137696
      ],
      [
       56.44581069352338,
       25.096249392409497
      ],
      [
       56.44541156567801,
       25.096789742932007
      ],
      [
       56.4458033697362,
       25.09787489140056
      ],
      [
       56.4462016863144,
       25.097515150935568
      ],
      [
       56.446007409117676,
       25.096611355291806
      ],
      [
       56.446798344515464,
       25.097156149154557
      ],
      [
       56.44759253153738,
       25.096978494692628
      ],
      [
       56.44738931917999,
       25.098061422166595
      ],
      [
       56.44798354492557,
       25.098244248750934
      ],
      [
       56.44797462783145,
       25.1002309698878
      ],
      [
       56.44737958100346,
       25.100228754125116
      ],
      [
       56.44717798460158,
       25.100950458827626
      ],
      [
       56.447773845907854,
       25.100772064491803
      ],
      [
       56.44776979079591,
       25.101675119280628
      ],
      [
       56.4483640344892,
       25.101857944559427
      ],
      [
       56.448355932337726,
       25.10366405394215
      ],
      [
       56.44875183168661,
       25.10384613988541
      ],
      [
       56.44913802240449,
       25.106195555645897
      ],
      [
       56.4499290327895,
       25.106740333399618
      ],
      [
       56.44952988781278,
       25.10728069397234
      ],
      [
       56.45091518409525,
       25.108008285179714
      ],
      [
       56.45090953732338,
       25.109272561288893
      ],
      [
       56.45130465234675,
       25.109635251511197
      ],
      [
       56.452098914326356,
       25.109457574473982
      ],
      [
       56.45130304004762,
       25.109996473223184
      ],
      [
       56.45229084064142,
       25.110903194283864
      ],
      [
       56.45169332485582,
       25.11144282746942
      ],
      [
       56.45168768520723,
       25.11270710315826
      ],
      [
       56.45248035756427,
       25.112890646111246
      ],
      [
       56.45247392104894,
       25.11433553250364
      ],
      [
       56.45326339130726,
       25.115241514578287
      ],
      [
       56.452865036506786,
       25.115601272531052
      ],
      [
       56.4532481240053,
       25.118673118659864
      ],
      [
       56.45245380373101,
       25.118850800655128
      ],
      [
       56.45323767634139,
       25.121021057374435
      ],
      [
       56.452640114532706,
       25.121560692882134
      ],
      [
       56.452831258840504,
       25.123186920648077
      ],
      [
       56.452433681552606,
       25.123366066041545
      ]
     ],
     [
      [
       56.450864349393704,
       25.119386762359458
      ],
      [
       56.45106192249998,
       25.119568107687833
      ],
      [
       56.45106272935801,
       25.11938749707451
      ],
      [
       56.450864349393704,
       25.119386762359458
      ]
     ],
     [
      [
       56.45185624929314,
       25.119390433280294
      ],
      [
       56.45225220419874,
       25.11957251043983
      ],
      [
       56.45225300930744,
       25.119391899790543
      ],
      [
       56.45185624929314,
       25.119390433280294
      ]
     ],
     [
      [
       56.45087564866882,
       25.116858213392405
      ],
      [
       56.45127159398494,
       25.11704029307031
      ],
      [
       56.4512724004423,
       25.11685968238905
      ],
      [
       56.45087564866882,
       25.116858213392405
      ]
     ],
     [
      [
       56.450479704542154,
       25.11667613267244
      ],
      [
       56.45067727279378,
       25.116857478495962
      ],
      [
       56.45067808011788,
       25.116676867828282
      ],
      [
       56.450479704542154,
       25.11667613267244
      ]
     ],
     [
      [
       56.45028132897423,
       25.116675397251182
      ],
      [
       56.4510764447515,
       25.1163171159711
      ],
      [
       56.450880490747366,
       25.11577454928394
      ],
      [
       56.45008618613055,
       25.11595221892165
      ],
      [
       56.45028132897423,
       25.116675397251182
      ]
     ],
     [
      [
       56.451471582498776,
       25.11667980579757
      ],
      [
       56.45206670936626,
       25.11668200648774
      ],
      [
       56.45206751464199,
       25.11650139577366
      ],
      [
       56.4516715698232,
       25.116319318217744
      ],
      [
       56.451471582498776,
       25.11667980579757
      ]
     ],
     [
      [
       56.44830243849373,
       25.115584364775394
      ],
      [
       56.44849919125915,
       25.11594632406623
      ],
      [
       56.448699185982996,
       25.115585840588338
      ],
      [
       56.44830243849373,
       25.115584364775394
      ]
     ],
     [
      [
       56.45167398732937,
       25.11577748607163
      ],
      [
       56.45187155595825,
       25.115958830330843
      ],
      [
       56.45187236149435,
       25.115778219605048
      ],
      [
       56.45167398732937,
       25.11577748607163
      ]
     ],
     [
      [
       56.447708128960464,
       25.115401538457174
      ],
      [
       56.4479056910358,
       25.11558288790087
      ],
      [
       56.447906502386175,
       25.115402277286496
      ],
      [
       56.447708128960464,
       25.115401538457174
      ]
     ],
     [
      [
       56.448699996167406,
       25.115405229949847
      ],
      [
       56.449095933503585,
       25.115587315339695
      ],
      [
       56.44909674310501,
       25.115406704689153
      ],
      [
       56.448699996167406,
       25.115405229949847
      ]
     ],
     [
      [
       56.450684538429826,
       25.115231982327572
      ],
      [
       56.45088129773317,
       25.115593938583707
      ],
      [
       56.45088291168136,
       25.115232717169985
      ],
      [
       56.450684538429826,
       25.115231982327572
      ]
     ],
     [
      [
       56.45008941872203,
       25.115229776207993
      ],
      [
       56.45028698410549,
       25.11541112253764
      ],
      [
       56.45028779195015,
       25.11523051184658
      ],
      [
       56.45008941872203,
       25.115229776207993
      ]
     ],
     [
      [
       56.44890079926408,
       25.114864135492102
      ],
      [
       56.44909836228438,
       25.115045483374804
      ],
      [
       56.449099171862336,
       25.11486487271099
      ],
      [
       56.44890079926408,
       25.114864135492102
      ]
     ],
     [
      [
       56.44949591708232,
       25.114866346352606
      ],
      [
       56.44969348100053,
       25.115047693457207
      ],
      [
       56.449694289704034,
       25.114867082775334
      ],
      [
       56.44949591708232,
       25.114866346352606
      ]
     ],
     [
      [
       56.44810893099657,
       25.114499962682046
      ],
      [
       56.44830649225233,
       25.114681311598975
      ],
      [
       56.44830730298054,
       25.114500700950423
      ],
      [
       56.44810893099657,
       25.114499962682046
      ]
     ],
     [
      [
       56.44969671576766,
       25.114325250703182
      ],
      [
       56.44989427913417,
       25.114506597543638
      ],
      [
       56.44989508752275,
       25.114325986842484
      ],
      [
       56.44969671576766,
       25.114325250703182
      ]
     ],
     [
      [
       56.450294254426446,
       25.113785626158858
      ],
      [
       56.45048939532076,
       25.11450880438727
      ],
      [
       56.45069099624249,
       25.113787096543742
      ],
      [
       56.450294254426446,
       25.113785626158858
      ]
     ],
     [
      [
       56.4479129929069,
       25.113957392212274
      ],
      [
       56.44830892441347,
       25.114139479640034
      ],
      [
       56.44830973511818,
       25.11395886897821
      ],
      [
       56.4479129929069,
       25.113957392212274
      ]
     ],
     [
      [
       56.44870728747475,
       25.113779734004336
      ],
      [
       56.44890484849386,
       25.113961082136793
      ],
      [
       56.448905658316335,
       25.11378047145246
      ],
      [
       56.44870728747475,
       25.113779734004336
      ]
     ],
     [
      [
       56.44791461545867,
       25.113596170899477
      ],
      [
       56.44811217499696,
       25.11377752006771
      ],
      [
       56.44811298597747,
       25.113596909403064
      ],
      [
       56.44791461545867,
       25.113596170899477
      ]
     ],
     [
      [
       56.44850972703857,
       25.11359838561413
      ],
      [
       56.44870728747475,
       25.113779734004336
      ],
      [
       56.44870809758087,
       25.113599123321602
      ],
      [
       56.44850972703857,
       25.11359838561413
      ]
     ],
     [
      [
       56.449104838688946,
       25.113600597940433
      ],
      [
       56.449302400023,
       25.11378194555259
      ],
      [
       56.44930320925472,
       25.11360133485179
      ],
      [
       56.449104838688946,
       25.113600597940433
      ]
     ],
     [
      [
       56.44930320925472,
       25.11360133485179
      ],
      [
       56.44970075905072,
       25.11342219716113
      ],
      [
       56.44970237630924,
       25.11306097571333
      ],
      [
       56.44930482769471,
       25.113240113436916
      ],
      [
       56.44930320925472,
       25.11360133485179
      ]
     ],
     [
      [
       56.450896628981646,
       25.112162334438878
      ],
      [
       56.4510941907399,
       25.11234367970415
      ],
      [
       56.45109499728609,
       25.112163068913873
      ],
      [
       56.450896628981646,
       25.112162334438878
      ]
     ],
     [
      [
       56.448912946366484,
       25.11215497509439
      ],
      [
       56.449310491988335,
       25.111975838345522
      ],
      [
       56.4491137429277,
       25.11161388000589
      ],
      [
       56.448915375575666,
       25.11161314289541
      ],
      [
       56.448912946366484,
       25.11215497509439
      ]
     ],
     [
      [
       56.448717818243615,
       25.11143179478377
      ],
      [
       56.448915375575666,
       25.11161314289541
      ],
      [
       56.448916185296405,
       25.111432532153568
      ],
      [
       56.448717818243615,
       25.11143179478377
      ]
     ],
     [
      [
       56.44832756863977,
       25.10998543329881
      ],
      [
       56.44852512310461,
       25.11016678191625
      ],
      [
       56.448525933345564,
       25.10998617115107
      ],
      [
       56.44832756863977,
       25.10998543329881
      ]
     ],
     [
      [
       56.450707945625496,
       25.10999427001423
      ],
      [
       56.45090550368101,
       25.1101756155199
      ],
      [
       56.450906310425076,
       25.109995004682546
      ],
      [
       56.450707945625496,
       25.10999427001423
      ]
     ],
     [
      [
       56.44852755380398,
       25.109624949607454
      ],
      [
       56.44872510800091,
       25.10980629796238
      ],
      [
       56.4487259179348,
       25.109625687182326
      ],
      [
       56.44852755380398,
       25.109624949607454
      ]
     ],
     [
      [
       56.450513617351106,
       25.109090480887506
      ],
      [
       56.45071117368941,
       25.10927182664459
      ],
      [
       56.45071198068589,
       25.109091215791125
      ],
      [
       56.450513617351106,
       25.109090480887506
      ]
     ],
     [
      [
       56.44773734284422,
       25.108899553610893
      ],
      [
       56.44793489470998,
       25.109080902996542
      ],
      [
       56.44793570577812,
       25.108900292222923
      ],
      [
       56.44773734284422,
       25.108899553610893
      ]
     ],
     [
      [
       56.447738965539756,
       25.10853833206245
      ],
      [
       56.447936516838425,
       25.10871968144488
      ],
      [
       56.447937327890884,
       25.10853907066241
      ],
      [
       56.447738965539756,
       25.10853833206245
      ]
     ],
     [
      [
       56.45011931427008,
       25.108547177751444
      ],
      [
       56.450316869159245,
       25.108728524022393
      ],
      [
       56.450317676715095,
       25.10854791316767
      ],
      [
       56.45011931427008,
       25.108547177751444
      ]
     ],
     [
      [
       56.44674715390177,
       25.108534635082968
      ],
      [
       56.44714550294587,
       25.10817489314079
      ],
      [
       56.446154507990805,
       25.107990581500786
      ],
      [
       56.44615369433947,
       25.108171192242132
      ],
      [
       56.44674715390177,
       25.108534635082968
      ]
     ],
     [
      [
       56.448136501003106,
       25.108359198204138
      ],
      [
       56.44833405261667,
       25.108540547066404
      ],
      [
       56.44833486307853,
       25.108359936267448
      ],
      [
       56.448136501003106,
       25.108359198204138
      ]
     ],
     [
      [
       56.449130739300614,
       25.107821053371875
      ],
      [
       56.44932748257023,
       25.108183011770844
      ],
      [
       56.44932910054105,
       25.10782179009058
      ],
      [
       56.449130739300614,
       25.107821053371875
      ]
     ],
     [
      [
       56.44813893321582,
       25.107817365798827
      ],
      [
       56.44833648397876,
       25.10799871465626
      ],
      [
       56.44833729441712,
       25.10781810384404
      ],
      [
       56.44813893321582,
       25.107817365798827
      ]
     ],
     [
      [
       56.447147939505676,
       25.107633060812777
      ],
      [
       56.447543849658956,
       25.10781515007136
      ],
      [
       56.447544661254966,
       25.107634539278845
      ],
      [
       56.447147939505676,
       25.107633060812777
      ]
     ],
     [
      [
       56.44833810484765,
       25.107637493027394
      ],
      [
       56.44853565562625,
       25.107818841623956
      ],
      [
       56.448536465765415,
       25.107638230801275
      ],
      [
       56.44833810484765,
       25.107637493027394
      ]
     ],
     [
      [
       56.44893318762442,
       25.107639705553144
      ],
      [
       56.449130739300614,
       25.107821053371875
      ],
      [
       56.44913154856567,
       25.107640442531125
      ],
      [
       56.44893318762442,
       25.107639705553144
      ]
     ],
     [
      [
       56.4495290791461,
       25.10746130483398
      ],
      [
       56.449726631436306,
       25.107642651873267
      ],
      [
       56.44972743981943,
       25.107462041010038
      ],
      [
       56.4495290791461,
       25.10746130483398
      ]
     ],
     [
      [
       56.44854051634377,
       25.106735176621548
      ],
      [
       56.44873806600389,
       25.106916524950815
      ],
      [
       56.448738875812545,
       25.106735914099993
      ],
      [
       56.44854051634377,
       25.106735176621548
      ]
     ],
     [
      [
       56.44715606086147,
       25.10582695276521
      ],
      [
       56.44735360700973,
       25.106008302901184
      ],
      [
       56.44735441881864,
       25.10582769207048
      ],
      [
       56.44715606086147,
       25.10582695276521
      ]
     ],
     [
      [
       56.44814785072579,
       25.105830646638776
      ],
      [
       56.44834539836996,
       25.10601199547853
      ],
      [
       56.44834620872217,
       25.105831384617648
      ],
      [
       56.44814785072579,
       25.105830646638776
      ]
     ],
     [
      [
       56.44636750853996,
       25.10474032799564
      ],
      [
       56.44656505179059,
       25.104921679158778
      ],
      [
       56.44656586471773,
       25.104741068325716
      ],
      [
       56.44636750853996,
       25.10474032799564
      ]
     ],
     [
      [
       56.447163369410575,
       25.10420145514425
      ],
      [
       56.44736010126135,
       25.104563416131743
      ],
      [
       56.4473617247458,
       25.104202194395143
      ],
      [
       56.447163369410575,
       25.10420145514425
      ]
     ],
     [
      [
       56.44617972728176,
       25.102391646325398
      ],
      [
       56.44637726654842,
       25.102572997726565
      ],
      [
       56.446378079664704,
       25.102392386842066
      ],
      [
       56.44617972728176,
       25.102391646325398
      ]
     ],
     [
      [
       56.447767357634675,
       25.102216952100857
      ],
      [
       56.44796489901099,
       25.102398301426852
      ],
      [
       56.44796570978913,
       25.102217690489592
      ],
      [
       56.447767357634675,
       25.102216952100857
      ]
     ],
     [
      [
       56.44678290935929,
       25.10058775787044
      ],
      [
       56.446980446689174,
       25.10076910847781
      ],
      [
       56.446981258853086,
       25.100588497530936
      ],
      [
       56.44678290935929,
       25.10058775787044
      ]
     ],
     [
      [
       56.44658862348767,
       25.099683963204505
      ],
      [
       56.44678615910145,
       25.099865314062914
      ],
      [
       56.44678697151735,
       25.09968470309998
      ],
      [
       56.44658862348767,
       25.099683963204505
      ]
     ],
     [
      [
       56.447183667600264,
       25.09968618209532
      ],
      [
       56.447579552463644,
       25.09986827101694
      ],
      [
       56.44758036371457,
       25.09968766002984
      ],
      [
       56.447183667600264,
       25.09968618209532
      ]
     ],
     [
      [
       56.44639108845639,
       25.099502612088564
      ],
      [
       56.44658862348767,
       25.099683963204505
      ],
      [
       56.44658943618697,
       25.09950335224319
      ],
      [
       56.44639108845639,
       25.099502612088564
      ]
     ],
     [
      [
       56.4452026316904,
       25.09913694374041
      ],
      [
       56.4454001643603,
       25.09931829640796
      ],
      [
       56.44540097879131,
       25.099137685474133
      ],
      [
       56.4452026316904,
       25.09913694374041
      ]
     ],
     [
      [
       56.44738688474176,
       25.09860325521592
      ],
      [
       56.44758360863983,
       25.0989652160372
      ],
      [
       56.44758523105541,
       25.098603994014347
      ],
      [
       56.44738688474176,
       25.09860325521592
      ]
     ],
     [
      [
       56.4465934995656,
       25.098600297370307
      ],
      [
       56.44679103347908,
       25.098781648218967
      ],
      [
       56.44679184584786,
       25.0986010372295
      ],
      [
       56.4465934995656,
       25.098600297370307
      ]
     ],
     [
      [
       56.44639596623458,
       25.09841894626413
      ],
      [
       56.4465934995656,
       25.098600297370307
      ],
      [
       56.44659431221776,
       25.09841968638246
      ],
      [
       56.44639596623458,
       25.09841894626413
      ]
     ],
     [
      [
       56.445405050828256,
       25.098234630738684
      ],
      [
       56.445602582380474,
       25.0984159831389
      ],
      [
       56.44560339648089,
       25.0982353721769
      ],
      [
       56.445405050828256,
       25.098234630738684
      ]
     ],
     [
      [
       56.44481816613728,
       25.09642629521228
      ],
      [
       56.44501569395891,
       25.096607648373418
      ],
      [
       56.44501650885422,
       25.096427037385396
      ],
      [
       56.44481816613728,
       25.09642629521228
      ]
     ],
     [
      [
       56.44422395408597,
       25.096243456133777
      ],
      [
       56.44442148072705,
       25.09642481007056
      ],
      [
       56.444422296488064,
       25.096244199096315
      ],
      [
       56.44422395408597,
       25.096243456133777
      ]
     ],
     [
      [
       56.444620638898044,
       25.09624494179369
      ],
      [
       56.44481816613728,
       25.09642629521228
      ],
      [
       56.44481898131591,
       25.096245684225902
      ],
      [
       56.444620638898044,
       25.09624494179369
      ]
     ],
     [
      [
       56.44462390069849,
       25.095522497828213
      ],
      [
       56.44482061164952,
       25.095884462239866
      ],
      [
       56.44482224195161,
       25.09552324023615
      ],
      [
       56.44462390069849,
       25.095522497828213
      ]
     ],
     [
      [
       56.44442637517483,
       25.095341144158773
      ],
      [
       56.44462390069849,
       25.095522497828213
      ],
      [
       56.44462471612889,
       25.095341886825786
      ],
      [
       56.44442637517483,
       25.095341144158773
      ]
     ],
     [
      [
       56.44502221290083,
       25.095162760345385
      ],
      [
       56.44521973903837,
       25.095344113235928
      ],
      [
       56.44522055358737,
       25.095163502210884
      ],
      [
       56.44502221290083,
       25.095162760345385
      ]
     ]
    ]
   },
   "properties": {
    "value": 4,
    "area_km2": 0.9512,
    "incident_id": "BB-AE-2024-001",
    "observation_utc": "2024-02-17T06:49:41.024000Z",
    "hypothesis": "BLOOM_LIKE (bloom-like optical anomaly, not a confirmed bloom)",
    "rule": "pipeline.detect thresholds at 20 m: NDCI robust z >= 3 and seasonal percentile >= 95, MCI z >= 1, 1-pixel opening; pieces >= 0.125 km2 or within 1.5 km of the DETECT candidate (DETECT minimum region 0.5 km2)",
    "quantity_kind": "PROXY",
    "sensor": "Sentinel-2A MSI L2A",
    "attribution": "Contains modified Copernicus Sentinel data 2024, 2018-2026"
   }
  },
  {
   "type": "Feature",
   "geometry": {
    "type": "Polygon",
    "coordinates": [
     [
      [
       56.4552479223873,
       25.070275852108146
      ],
      [
       56.45525031911114,
       25.069734016275557
      ],
      [
       56.4546570185095,
       25.069370608301416
      ],
      [
       56.45526070411089,
       25.067386060541562
      ],
      [
       56.454468319036216,
       25.067202536202473
      ],
      [
       56.454469918923046,
       25.066841312215953
      ],
      [
       56.455066403178556,
       25.066482272783976
      ],
      [
       56.45447311860385,
       25.066118864189914
      ],
      [
       56.45447551828322,
       25.065577028124004
      ],
      [
       56.45566607656376,
       25.065400782639976
      ],
      [
       56.45567166328117,
       25.06413649805059
      ],
      [
       56.45626813087349,
       25.063777453380595
      ],
      [
       56.45567405747285,
       25.063594661731738
      ],
      [
       56.45568203761001,
       25.061788540381826
      ],
      [
       56.45508717581483,
       25.06178635865708
      ],
      [
       56.45568522944875,
       25.0610660917182
      ],
      [
       56.45489528141982,
       25.060340733678526
      ],
      [
       56.4556892190735,
       25.060163030789294
      ],
      [
       56.45509596266532,
       25.05979962485844
      ],
      [
       56.45529664210526,
       25.059258515698158
      ],
      [
       56.454901673779716,
       25.05889583618842
      ],
      [
       56.45609136949242,
       25.058900198272507
      ],
      [
       56.45609535574803,
       25.05799713701918
      ],
      [
       56.45569959119481,
       25.057815071857444
      ],
      [
       56.45609774740886,
       25.057455300214194
      ],
      [
       56.456887684492074,
       25.058180651945385
      ],
      [
       56.45707880361548,
       25.05980688735423
      ],
      [
       56.45787273490076,
       25.059629172667012
      ],
      [
       56.457869556096654,
       25.060351621733126
      ],
      [
       56.45826612618446,
       25.060353068973253
      ],
      [
       56.45886256788489,
       25.05999401326453
      ],
      [
       56.45846838036639,
       25.059450730763725
      ],
      [
       56.458866534028395,
       25.059090951728734
      ],
      [
       56.459650953269545,
       25.061080575182906
      ],
      [
       56.458852255013994,
       25.062341972740917
      ],
      [
       56.45845885414027,
       25.06161807801622
      ],
      [
       56.458661109179914,
       25.060715739708357
      ],
      [
       56.45786876137641,
       25.060532233988614
      ],
      [
       56.457470600111975,
       25.06089201015172
      ],
      [
       56.45746662341207,
       25.061795071259503
      ],
      [
       56.45806148548467,
       25.061797243453192
      ],
      [
       56.45686618760172,
       25.063057181923885
      ],
      [
       56.45744912364741,
       25.065768538822024
      ],
      [
       56.456656745432014,
       25.065585026243344
      ],
      [
       56.456852649642,
       25.06612758803636
      ],
      [
       56.45665435534639,
       25.066126862505573
      ],
      [
       56.456653558635765,
       25.066307474584143
      ],
      [
       56.45645526405713,
       25.066306748782626
      ],
      [
       56.456454467048076,
       25.066487360850843
      ],
      [
       56.45625617218642,
       25.066486634778574
      ],
      [
       56.45605707973425,
       25.066666520493417
      ],
      [
       56.456055484514664,
       25.067027744584003
      ],
      [
       56.45684866746548,
       25.067030648414747
      ],
      [
       56.45644888776883,
       25.067751645204712
      ],
      [
       56.4570421861009,
       25.0681150460543
      ],
      [
       56.456643997507214,
       25.068474819182523
      ],
      [
       56.456835126624746,
       25.070101052875252
      ],
      [
       56.45564612091349,
       25.0699160829781
      ],
      [
       56.4552479223873,
       25.070275852108146
      ]
     ],
     [
      [
       56.455650112429566,
       25.06901302313134
      ],
      [
       56.45584761334156,
       25.069194362065428
      ],
      [
       56.455848411338565,
       25.0690137500813
      ],
      [
       56.455650112429566,
       25.06901302313134
      ]
     ],
     [
      [
       56.45525431349634,
       25.068830956466215
      ],
      [
       56.4554518135283,
       25.069012295916547
      ],
      [
       56.45545261209912,
       25.068831683939894
      ],
      [
       56.45525431349634,
       25.068830956466215
      ]
     ],
     [
      [
       56.45505761318281,
       25.068469004784948
      ],
      [
       56.455453410662216,
       25.068651071958822
      ],
      [
       56.455454209217585,
       25.06847045997333
      ],
      [
       56.45505761318281,
       25.068469004784948
      ]
     ],
     [
      [
       56.45545500776524,
       25.068289847983426
      ],
      [
       56.45585080528327,
       25.068471914102393
      ],
      [
       56.4558516032494,
       25.068291302100583
      ],
      [
       56.45545500776524,
       25.068289847983426
      ]
     ],
     [
      [
       56.455461395868404,
       25.066844951905143
      ],
      [
       56.45565889308553,
       25.06702629107975
      ],
      [
       56.45565969128066,
       25.06684567904855
      ],
      [
       56.455461395868404,
       25.066844951905143
      ]
     ],
     [
      [
       56.45486730902834,
       25.06666215687427
      ],
      [
       56.45506480506707,
       25.066843496823903
      ],
      [
       56.45506560412667,
       25.06666288480615
      ],
      [
       56.45486730902834,
       25.06666215687427
      ]
     ],
     [
      [
       56.45566208581971,
       25.06630384292846
      ],
      [
       56.455859582486255,
       25.066485181839607
      ],
      [
       56.4558603803675,
       25.066304569789207
      ],
      [
       56.45566208581971,
       25.06630384292846
      ]
     ],
     [
      [
       56.45605867492299,
       25.066305296385153
      ],
      [
       56.45625617218642,
       25.066486634778574
      ],
      [
       56.456256969486205,
       25.06630602271629
      ],
      [
       56.45605867492299,
       25.066305296385153
      ]
     ],
     [
      [
       56.45506800125913,
       25.06612104872637
      ],
      [
       56.455265496747316,
       25.066302388412545
      ],
      [
       56.45526629549302,
       25.06612177637559
      ],
      [
       56.45506800125913,
       25.06612104872637
      ]
     ],
     [
      [
       56.45546458973463,
       25.066122503759996
      ],
      [
       56.45566208581971,
       25.06630384292846
      ],
      [
       56.45566288398396,
       25.066123230879604
      ],
      [
       56.45546458973463,
       25.066122503759996
      ]
     ],
     [
      [
       56.455069599308786,
       25.06575982465111
      ],
      [
       56.45526709423098,
       25.065941164334202
      ],
      [
       56.45526789296123,
       25.065760552288417
      ],
      [
       56.455069599308786,
       25.06575982465111
      ]
     ],
     [
      [
       56.4560618652079,
       25.065582848115636
      ],
      [
       56.45625856406264,
       25.065944798578478
      ],
      [
       56.456260158608224,
       25.065583574423002
      ],
      [
       56.4560618652079,
       25.065582848115636
      ]
     ],
     [
      [
       56.45646482756453,
       25.06413940361946
      ],
      [
       56.45666232202879,
       25.06432074147689
      ],
      [
       56.456663118654646,
       25.064140129349727
      ],
      [
       56.45646482756453,
       25.06413940361946
      ]
     ],
     [
      [
       56.456267333681666,
       25.063958065504714
      ],
      [
       56.45646482756453,
       25.06413940361946
      ],
      [
       56.45646562447338,
       25.06395879149382
      ],
      [
       56.456267333681666,
       25.063958065504714
      ]
     ],
     [
      [
       56.456268928057604,
       25.063596841252057
      ],
      [
       56.456466421374515,
       25.063778179363762
      ],
      [
       56.456467218267946,
       25.06359756722929
      ],
      [
       56.456268928057604,
       25.063596841252057
      ]
     ],
     [
      [
       56.45627211671695,
       25.062874392693764
      ],
      [
       56.45646960890198,
       25.063055730799373
      ],
      [
       56.45647040576458,
       25.062875118647227
      ],
      [
       56.45627211671695,
       25.062874392693764
      ]
     ],
     [
      [
       56.45687096517367,
       25.061973508873553
      ],
      [
       56.457068456839,
       25.06215484619508
      ],
      [
       56.45706925279109,
       25.061974234003056
      ],
      [
       56.45687096517367,
       25.061973508873553
      ]
     ],
     [
      [
       56.457268336069916,
       25.061794346665437
      ],
      [
       56.457465828049,
       25.061975683467807
      ],
      [
       56.45746662341207,
       25.061795071259503
      ],
      [
       56.457268336069916,
       25.061794346665437
      ]
     ],
     [
      [
       56.45627769657396,
       25.06161010754671
      ],
      [
       56.4564751867783,
       25.06179144564165
      ],
      [
       56.45647598358695,
       25.06161083345859
      ],
      [
       56.45627769657396,
       25.06161010754671
      ]
     ],
     [
      [
       56.455684431500636,
       25.06124670389073
      ],
      [
       56.45588192024401,
       25.061428042759037
      ],
      [
       56.45588271790919,
       25.061247430584974
      ],
      [
       56.455684431500636,
       25.06124670389073
      ]
     ],
     [
      [
       56.45608259905136,
       25.06088693264121
      ],
      [
       56.45628008782559,
       25.061068270988855
      ],
      [
       56.45628088489405,
       25.060887658794076
      ],
      [
       56.45608259905136,
       25.06088693264121
      ]
     ],
     [
      [
       56.45667745660254,
       25.060889110305588
      ],
      [
       56.456874946271824,
       25.061070447876823
      ],
      [
       56.45687574246835,
       25.060889835664238
      ],
      [
       56.45667745660254,
       25.060889110305588
      ]
     ],
     [
      [
       56.456479967514554,
       25.060707772477066
      ],
      [
       56.45667745660254,
       25.060889110305588
      ],
      [
       56.45667825308201,
       25.060708498094513
      ],
      [
       56.456479967514554,
       25.060707772477066
      ]
     ],
     [
      [
       56.45707562013053,
       25.060529336307837
      ],
      [
       56.457273109830616,
       25.060710673358425
      ],
      [
       56.45727390543046,
       25.060530061125135
      ],
      [
       56.45707562013053,
       25.060529336307837
      ]
     ],
     [
      [
       56.456084991082385,
       25.060345096048195
      ],
      [
       56.45628247900783,
       25.060526434391267
      ],
      [
       56.456283276053156,
       25.060345822183237
      ],
      [
       56.456084991082385,
       25.060345096048195
      ]
     ],
     [
      [
       56.45727470102261,
       25.060349448887425
      ],
      [
       56.45747219073808,
       25.0605307856777
      ],
      [
       56.4574729860396,
       25.060350173434063
      ],
      [
       56.45727470102261,
       25.060349448887425
      ]
     ],
     [
      [
       56.455887503738204,
       25.06016375744786
      ],
      [
       56.456084991082385,
       25.060345096048195
      ],
      [
       56.45608578841063,
       25.060164483841692
      ],
      [
       56.455887503738204,
       25.06016375744786
      ]
     ],
     [
      [
       56.45707800775579,
       25.05998749959926
      ],
      [
       56.45727549660706,
       25.0601688366453
      ],
      [
       56.45727629218382,
       25.059988224398765
      ],
      [
       56.45707800775579,
       25.05998749959926
      ]
     ],
     [
      [
       56.45588830134937,
       25.05998314524288
      ],
      [
       56.456483951249474,
       25.059804711385134
      ],
      [
       56.45609057221816,
       25.05908081050993
      ],
      [
       56.45549412713987,
       25.059439855067172
      ],
      [
       56.45588830134937,
       25.05998314524288
      ]
     ],
     [
      [
       56.456483951249474,
       25.059804711385134
      ],
      [
       56.45668143892283,
       25.059986049206053
      ],
      [
       56.45668223536377,
       25.0598054369729
      ],
      [
       56.456483951249474,
       25.059804711385134
      ]
     ],
     [
      [
       56.45629044911416,
       25.05872031211224
      ],
      [
       56.45648793479172,
       25.058901650182808
      ],
      [
       56.456488731477044,
       25.058721037929086
      ],
      [
       56.45629044911416,
       25.05872031211224
      ]
     ]
    ]
   },
   "properties": {
    "value": 17,
    "area_km2": 0.2514,
    "incident_id": "BB-AE-2024-001",
    "observation_utc": "2024-02-17T06:49:41.024000Z",
    "hypothesis": "BLOOM_LIKE (bloom-like optical anomaly, not a confirmed bloom)",
    "rule": "pipeline.detect thresholds at 20 m: NDCI robust z >= 3 and seasonal percentile >= 95, MCI z >= 1, 1-pixel opening; pieces >= 0.125 km2 or within 1.5 km of the DETECT candidate (DETECT minimum region 0.5 km2)",
    "quantity_kind": "PROXY",
    "sensor": "Sentinel-2A MSI L2A",
    "attribution": "Contains modified Copernicus Sentinel data 2024, 2018-2026"
   }
  },
  {
   "type": "Feature",
   "geometry": {
    "type": "Polygon",
    "coordinates": [
     [
      [
       56.45082882743344,
       25.12733362489591
      ],
      [
       56.45023526580648,
       25.126970197562756
      ],
      [
       56.45043850619436,
       25.125887270776747
      ],
      [
       56.451431265052065,
       25.125710334961934
      ],
      [
       56.45103932730978,
       25.12462520306455
      ],
      [
       56.45163449261809,
       25.124627406138856
      ],
      [
       56.45223287925601,
       25.123907164695456
      ],
      [
       56.45242885150646,
       25.124449729322794
      ],
      [
       56.452030463903284,
       25.12480948404252
      ],
      [
       56.45262402067786,
       25.125172904204838
      ],
      [
       56.45261999672818,
       25.12607595675896
      ],
      [
       56.4532159731533,
       25.125897543084758
      ],
      [
       56.453610344206986,
       25.126440837891337
      ],
      [
       56.453012757156046,
       25.126980474091614
      ],
      [
       56.45241838544584,
       25.12679766588572
      ],
      [
       56.45241597001439,
       25.12733949729405
      ],
      [
       56.451425619055016,
       25.126974608162207
      ],
      [
       56.45122722682743,
       25.12697387372613
      ],
      [
       56.45082882743344,
       25.12733362489591
      ]
     ],
     [
      [
       56.45102964178536,
       25.126792528592606
      ],
      [
       56.45122722682743,
       25.12697387372613
      ],
      [
       56.451228033713484,
       25.12679326328822
      ],
      [
       56.45102964178536,
       25.126792528592606
      ]
     ],
     [
      [
       56.45242080080728,
       25.12625583443758
      ],
      [
       56.45261838709388,
       25.126437177749636
      ],
      [
       56.45261919191492,
       25.126256567256515
      ],
      [
       56.45242080080728,
       25.12625583443758
      ]
     ],
     [
      [
       56.451431265052065,
       25.125710334961934
      ],
      [
       56.45162884898984,
       25.12589167956695
      ],
      [
       56.45162965524582,
       25.125711069090503
      ],
      [
       56.451431265052065,
       25.125710334961934
      ]
     ],
     [
      [
       56.45163449261809,
       25.124627406138856
      ],
      [
       56.45183126922679,
       25.12498936097952
      ],
      [
       56.45183288106978,
       25.12462813996595
      ],
      [
       56.45163449261809,
       25.124627406138856
      ]
     ]
    ]
   },
   "properties": {
    "value": 2,
    "area_km2": 0.0596,
    "incident_id": "BB-AE-2024-001",
    "observation_utc": "2024-02-17T06:49:41.024000Z",
    "hypothesis": "BLOOM_LIKE (bloom-like optical anomaly, not a confirmed bloom)",
    "rule": "pipeline.detect thresholds at 20 m: NDCI robust z >= 3 and seasonal percentile >= 95, MCI z >= 1, 1-pixel opening; pieces >= 0.125 km2 or within 1.5 km of the DETECT candidate (DETECT minimum region 0.5 km2)",
    "quantity_kind": "PROXY",
    "sensor": "Sentinel-2A MSI L2A",
    "attribution": "Contains modified Copernicus Sentinel data 2024, 2018-2026"
   }
  },
  {
   "type": "Feature",
   "geometry": {
    "type": "Polygon",
    "coordinates": [
     [
      [
       56.444344763974144,
       25.113402221902227
      ],
      [
       56.444149661024774,
       25.11267903612649
      ],
      [
       56.44514476683747,
       25.11196030862091
      ],
      [
       56.44533987461558,
       25.11268349323774
      ],
      [
       56.444344763974144,
       25.113402221902227
      ]
     ]
    ]
   },
   "properties": {
    "value": 10,
    "area_km2": 0.0096,
    "incident_id": "BB-AE-2024-001",
    "observation_utc": "2024-02-17T06:49:41.024000Z",
    "hypothesis": "BLOOM_LIKE (bloom-like optical anomaly, not a confirmed bloom)",
    "rule": "pipeline.detect thresholds at 20 m: NDCI robust z >= 3 and seasonal percentile >= 95, MCI z >= 1, 1-pixel opening; pieces >= 0.125 km2 or within 1.5 km of the DETECT candidate (DETECT minimum region 0.5 km2)",
    "quantity_kind": "PROXY",
    "sensor": "Sentinel-2A MSI L2A",
    "attribution": "Contains modified Copernicus Sentinel data 2024, 2018-2026"
   }
  },
  {
   "type": "Feature",
   "geometry": {
    "type": "Polygon",
    "coordinates": [
     [
      [
       56.44533742952714,
       25.113225325030754
      ],
      [
       56.445140690351025,
       25.1128633616453
      ],
      [
       56.44593742391191,
       25.112143886323633
      ],
      [
       56.44633009235463,
       25.113048421460036
      ],
      [
       56.44533742952714,
       25.113225325030754
      ]
     ]
    ]
   },
   "properties": {
    "value": 11,
    "area_km2": 0.0078,
    "incident_id": "BB-AE-2024-001",
    "observation_utc": "2024-02-17T06:49:41.024000Z",
    "hypothesis": "BLOOM_LIKE (bloom-like optical anomaly, not a confirmed bloom)",
    "rule": "pipeline.detect thresholds at 20 m: NDCI robust z >= 3 and seasonal percentile >= 95, MCI z >= 1, 1-pixel opening; pieces >= 0.125 km2 or within 1.5 km of the DETECT candidate (DETECT minimum region 0.5 km2)",
    "quantity_kind": "PROXY",
    "sensor": "Sentinel-2A MSI L2A",
    "attribution": "Contains modified Copernicus Sentinel data 2024, 2018-2026"
   }
  },
  {
   "type": "Feature",
   "geometry": {
    "type": "Polygon",
    "coordinates": [
     [
      [
       56.4463325330477,
       25.112506589562898
      ],
      [
       56.44633578719507,
       25.111784146971438
      ],
      [
       56.44574312776851,
       25.111240091745625
      ],
      [
       56.445943122557175,
       25.11087961176496
      ],
      [
       56.446733335220294,
       25.11160501716717
      ],
      [
       56.4463325330477,
       25.112506589562898
      ]
     ]
    ]
   },
   "properties": {
    "value": 13,
    "area_km2": 0.0058,
    "incident_id": "BB-AE-2024-001",
    "observation_utc": "2024-02-17T06:49:41.024000Z",
    "hypothesis": "BLOOM_LIKE (bloom-like optical anomaly, not a confirmed bloom)",
    "rule": "pipeline.detect thresholds at 20 m: NDCI robust z >= 3 and seasonal percentile >= 95, MCI z >= 1, 1-pixel opening; pieces >= 0.125 km2 or within 1.5 km of the DETECT candidate (DETECT minimum region 0.5 km2)",
    "quantity_kind": "PROXY",
    "sensor": "Sentinel-2A MSI L2A",
    "attribution": "Contains modified Copernicus Sentinel data 2024, 2018-2026"
   }
  },
  {
   "type": "Feature",
   "geometry": {
    "type": "Polygon",
    "coordinates": [
     [
      [
       56.455427890976246,
       25.11922298289952
      ],
      [
       56.454834354066854,
       25.11885957401909
      ],
      [
       56.4550343352961,
       25.1184990819018
      ],
      [
       56.45582625036947,
       25.118863218306366
      ],
      [
       56.455427890976246,
       25.11922298289952
      ]
     ]
    ]
   },
   "properties": {
    "value": 6,
    "area_km2": 0.004,
    "incident_id": "BB-AE-2024-001",
    "observation_utc": "2024-02-17T06:49:41.024000Z",
    "hypothesis": "BLOOM_LIKE (bloom-like optical anomaly, not a confirmed bloom)",
    "rule": "pipeline.detect thresholds at 20 m: NDCI robust z >= 3 and seasonal percentile >= 95, MCI z >= 1, 1-pixel opening; pieces >= 0.125 km2 or within 1.5 km of the DETECT candidate (DETECT minimum region 0.5 km2)",
    "quantity_kind": "PROXY",
    "sensor": "Sentinel-2A MSI L2A",
    "attribution": "Contains modified Copernicus Sentinel data 2024, 2018-2026"
   }
  }
 ],
 "name": "BB-AE-2024-001 event polygon",
 "crs_note": "EPSG:4326 (lon, lat)"
}