{
 "type": "FeatureCollection",
 "features": [
  {
   "type": "Feature",
   "geometry": {
    "type": "Polygon",
    "coordinates": [
     [
      [
       7.783726385852334,
       36.95165203783009
      ],
      [
       7.7810701275050596,
       36.94919103701293
      ],
      [
       7.779053231439012,
       36.94889989753032
      ],
      [
       7.779398727566863,
       36.94836261344858
      ],
      [
       7.778068544279462,
       36.94726726025416
      ],
      [
       7.777377538953941,
       36.94834181956775
      ],
      [
       7.778716364203804,
       36.948896433248755
      ],
      [
       7.777027706058108,
       36.94914947095992
      ],
      [
       7.775701871478959,
       36.94778371835018
      ],
      [
       7.775723507427783,
       36.946431851340876
      ],
      [
       7.7740478941328455,
       36.94587372759023
      ],
      [
       7.773391528201221,
       36.94478527717183
      ],
      [
       7.770364240338023,
       36.944483549712054
      ],
      [
       7.77004043398237,
       36.94366894224472
      ],
      [
       7.76936239880357,
       36.9439323353464
      ],
      [
       7.76968619892067,
       36.94474694451526
      ],
      [
       7.7690125034413855,
       36.944739962524864
      ],
      [
       7.768369276885527,
       36.94284036706495
      ],
      [
       7.7690864534520605,
       36.940143622560235
      ],
      [
       7.76808903030401,
       36.93932202525683
      ],
      [
       7.768486772328568,
       36.93554029541059
      ],
      [
       7.767489414358227,
       36.93471869367051
      ],
      [
       7.76784798256062,
       36.93337032266211
      ],
      [
       7.767183097954117,
       36.93282258572701
      ],
      [
       7.7641432136385,
       36.93333182718846
      ],
      [
       7.76151009061928,
       36.9295185405383
      ],
      [
       7.762577248464,
       36.926014223940165
      ],
      [
       7.764278528330993,
       36.92495026254683
      ],
      [
       7.763950498794272,
       36.924406011831714
      ],
      [
       7.764982578997231,
       36.923064654646225
      ],
      [
       7.764330893189083,
       36.921705782614346
      ],
      [
       7.765695310690102,
       36.9206382941857
      ],
      [
       7.765712743835997,
       36.91955679971445
      ],
      [
       7.76912791705625,
       36.916617630174166
      ],
      [
       7.770807197925897,
       36.91690543933777
      ],
      [
       7.772512494332673,
       36.91557097810586
      ],
      [
       7.771865069282447,
       36.91394176991075
      ],
      [
       7.772901198198967,
       36.9123299617863
      ],
      [
       7.7722667910468015,
       36.909889630996695
      ],
      [
       7.773285535489291,
       36.90935931674302
      ],
      [
       7.773950265771341,
       36.90990701868904
      ],
      [
       7.775638063544791,
       36.909654007436984
      ],
      [
       7.776324409384964,
       36.90884982066014
      ],
      [
       7.777662544144293,
       36.90940443705534
      ],
      [
       7.779350320029488,
       36.90915137260176
      ],
      [
       7.779648245293849,
       36.911588211207544
      ],
      [
       7.776229376813014,
       36.91479807216736
      ],
      [
       7.776186170967846,
       36.91750182080942
      ],
      [
       7.774813301617932,
       36.91911018323538
      ],
      [
       7.775141387618246,
       36.91965440542189
      ],
      [
       7.773094966919819,
       36.92125579902089
      ],
      [
       7.771708951396056,
       36.92367524454004
      ],
      [
       7.770353245593093,
       36.92420205429294
      ],
      [
       7.769631933378856,
       36.927169190808904
      ],
      [
       7.771307107007208,
       36.92772737048452
      ],
      [
       7.7709486287295055,
       36.929075754800174
      ],
      [
       7.771941615034253,
       36.93016770137961
      ],
      [
       7.772235029484631,
       36.93287492100423
      ],
      [
       7.773569215717441,
       36.93369996224677
      ],
      [
       7.776267938028957,
       36.93345738275085
      ],
      [
       7.777485558432053,
       36.941582477731345
      ],
      [
       7.778154910542689,
       36.94185978504791
      ],
      [
       7.778461529484918,
       36.943755867500435
      ],
      [
       7.783130051992173,
       36.94677840148925
      ],
      [
       7.787172357330274,
       36.9468197575679
      ],
      [
       7.788170085462661,
       36.947641199045584
      ],
      [
       7.787816084414895,
       36.94871925901133
      ],
      [
       7.785125439878949,
       36.94842134269283
      ],
      [
       7.784443115022449,
       36.9489551961189
      ],
      [
       7.783445411057659,
       36.94813372391513
      ],
      [
       7.782426210691732,
       36.94866411380481
      ],
      [
       7.784745617920443,
       36.951121637599904
      ],
      [
       7.783726385852334,
       36.95165203783009
      ]
     ],
     [
      [
       7.78175678356747,
       36.9483868295124
      ],
      [
       7.78243481799217,
       36.94812336576348
      ],
      [
       7.7821065632024755,
       36.9475791631108
      ],
      [
       7.781428532577396,
       36.94784262507601
      ],
      [
       7.78175678356747,
       36.9483868295124
      ]
     ],
     [
      [
       7.780081081410175,
       36.94782878950588
      ],
      [
       7.780759116335134,
       36.94756533531754
      ],
      [
       7.78043087588201,
       36.94702112824266
      ],
      [
       7.779752844756879,
       36.947284580647455
      ],
      [
       7.780081081410175,
       36.94782878950588
      ]
     ]
    ]
   },
   "properties": {
    "value": 4,
    "area_km2": 3.1365,
    "label": "L4",
    "pixel_count": 3485,
    "mean_rx": 2188.95,
    "max_rx": 29398.57,
    "class": "BOTTOM_INFLUENCED",
    "class_label": "Shallow water / bottom reflectance",
    "class_confidence": 0.165,
    "is_primary": false
   }
  },
  {
   "type": "Feature",
   "geometry": {
    "type": "Polygon",
    "coordinates": [
     [
      [
       7.775500155544377,
       36.897213269927114
      ],
      [
       7.765199394556948,
       36.88872363091512
      ],
      [
       7.766908493952176,
       36.887118858978056
      ],
      [
       7.766921540169286,
       36.8863077331868
      ],
      [
       7.765256006031153,
       36.88520875487193
      ],
      [
       7.766628445133624,
       36.88360048641376
      ],
      [
       7.763638476893571,
       36.8811356276429
      ],
      [
       7.76466124673613,
       36.88033500359052
      ],
      [
       7.764014266012543,
       36.87870575173699
      ],
      [
       7.764696090297882,
       36.87817200058323
      ],
      [
       7.766702374137661,
       36.87900410316779
      ],
      [
       7.768057295398541,
       36.87847731686603
      ],
      [
       7.768406878170811,
       36.87766967828525
      ],
      [
       7.767742461370255,
       36.87712194830045
      ],
      [
       7.768760794029187,
       36.87659166252552
      ],
      [
       7.768118097494657,
       36.874692055036455
      ],
      [
       7.770141672338529,
       36.87444259481206
      ],
      [
       7.776177752400166,
       36.89694983177943
      ],
      [
       7.775500155544377,
       36.897213269927114
      ]
     ],
     [
      [
       7.770252752370891,
       36.88850562181339
      ],
      [
       7.771271221751383,
       36.88797531798541
      ],
      [
       7.770611032620323,
       36.88715722731075
      ],
      [
       7.769592569866061,
       36.88768752566658
      ],
      [
       7.770252752370891,
       36.88850562181339
      ]
     ],
     [
      [
       7.767297255587497,
       36.88387784750979
      ],
      [
       7.768315682288466,
       36.88334756785698
      ],
      [
       7.767664254427863,
       36.88198871036778
      ],
      [
       7.766645841701784,
       36.88251898480559
      ],
      [
       7.767297255587497,
       36.88387784750979
      ]
     ]
    ]
   },
   "properties": {
    "value": 7,
    "area_km2": 1.1286,
    "label": "L7",
    "pixel_count": 1254,
    "mean_rx": 31337.33,
    "max_rx": 43707.12,
    "class": "SEDIMENT_LIKE",
    "class_label": "High turbidity / suspended sediment signature",
    "class_confidence": 0.549,
    "is_primary": true
   }
  },
  {
   "type": "Feature",
   "geometry": {
    "type": "Polygon",
    "coordinates": [
     [
      [
       7.778029428548604,
       36.907515273389755
      ],
      [
       7.776371915212317,
       36.905875692589085
      ],
      [
       7.7770539026103025,
       36.90534187575807
      ],
      [
       7.776402142563767,
       36.903983064830406
      ],
      [
       7.774403752254071,
       36.902610364940436
      ],
      [
       7.773048441108687,
       36.903137214477574
      ],
      [
       7.7707178129007115,
       36.901490601318415
      ],
      [
       7.769733886321273,
       36.89985789663651
      ],
      [
       7.766738845607441,
       36.897663483803974
      ],
      [
       7.766100390799726,
       36.89549349485589
      ],
      [
       7.7671102833833645,
       36.895503979277194
      ],
      [
       7.768763032903246,
       36.89741405930449
      ],
      [
       7.770437555294986,
       36.89797224187101
      ],
      [
       7.771089160525857,
       36.89933108398584
      ],
      [
       7.773100393250577,
       36.89989271190292
      ],
      [
       7.773752061486478,
       36.90125154014912
      ],
      [
       7.777757446862571,
       36.903456176951096
      ],
      [
       7.778720040097644,
       36.906440696145665
      ],
      [
       7.778029428548604,
       36.907515273389755
      ]
     ]
    ]
   },
   "properties": {
    "value": 6,
    "area_km2": 0.2565,
    "label": "L6",
    "pixel_count": 285,
    "mean_rx": 7320.27,
    "max_rx": 8018.41,
    "class": "SEDIMENT_LIKE",
    "class_label": "High turbidity / suspended sediment signature",
    "class_confidence": 0.714,
    "is_primary": false
   }
  },
  {
   "type": "Feature",
   "geometry": {
    "type": "Polygon",
    "coordinates": [
     [
      [
       7.702457451315184,
       36.9556592388114
      ],
      [
       7.702143506863177,
       36.95430372980028
      ],
      [
       7.703172489132547,
       36.953233310579584
      ],
      [
       7.7021710359903786,
       36.952681537107445
      ],
      [
       7.7021893875175875,
       36.95160007505566
      ],
      [
       7.7042289257598755,
       36.95054068709219
      ],
      [
       7.7082941374599505,
       36.94923290117686
      ],
      [
       7.70927734205757,
       36.95086608871279
      ],
      [
       7.71129398910016,
       36.95115840939847
      ],
      [
       7.7109434503068615,
       36.95196585215541
      ],
      [
       7.706891848627443,
       36.95246262832167
      ],
      [
       7.702457451315184,
       36.9556592388114
      ]
     ]
    ]
   },
   "properties": {
    "value": 3,
    "area_km2": 0.2313,
    "label": "L3",
    "pixel_count": 257,
    "mean_rx": 4759.0,
    "max_rx": 16543.11,
    "class": "UNKNOWN_ANOMALY",
    "class_label": "Unclassified spectral anomaly",
    "class_confidence": 0.145,
    "is_primary": false
   }
  },
  {
   "type": "Feature",
   "geometry": {
    "type": "Polygon",
    "coordinates": [
     [
      [
       7.640938392212353,
       36.966598768662244
      ],
      [
       7.639605119727921,
       36.965772258467254
      ],
      [
       7.6348978592089045,
       36.96517739796145
      ],
      [
       7.63457542664711,
       36.964362450833754
      ],
      [
       7.636943482373702,
       36.963848836768214
      ],
      [
       7.63759803793076,
       36.96493800274833
      ],
      [
       7.639633987135254,
       36.96415011010728
      ],
      [
       7.640967232197598,
       36.96497661963015
      ],
      [
       7.641982794596572,
       36.96471782772955
      ],
      [
       7.642295704351975,
       36.96607347296625
      ],
      [
       7.640938392212353,
       36.966598768662244
      ]
     ]
    ]
   },
   "properties": {
    "value": 1,
    "area_km2": 0.0954,
    "label": "L1",
    "pixel_count": 106,
    "mean_rx": 1635.77,
    "max_rx": 2613.87,
    "class": "UNKNOWN_ANOMALY",
    "class_label": "Unclassified spectral anomaly",
    "class_confidence": 0.006,
    "is_primary": false
   }
  },
  {
   "type": "Feature",
   "geometry": {
    "type": "Polygon",
    "coordinates": [
     [
      [
       7.78260384491613,
       36.95867139834357
      ],
      [
       7.781269130342478,
       36.95784645229965
      ],
      [
       7.780949464655759,
       36.95676149973386
      ],
      [
       7.782314294882558,
       36.95569383369395
      ],
      [
       7.782003234630433,
       36.95406813603909
      ],
      [
       7.7830182085195005,
       36.953808125455595
      ],
      [
       7.783674786778014,
       36.954896524937745
      ],
      [
       7.782988090185729,
       36.95570074197166
      ],
      [
       7.783286270932206,
       36.95813755815326
      ],
      [
       7.78260384491613,
       36.95867139834357
      ]
     ]
    ]
   },
   "properties": {
    "value": 2,
    "area_km2": 0.0675,
    "label": "L2",
    "pixel_count": 75,
    "mean_rx": 3811.89,
    "max_rx": 18346.01,
    "class": "CYANO_LIKE",
    "class_label": "Cyanobacteria-like pigment signature",
    "class_confidence": 0.196,
    "is_primary": false
   }
  },
  {
   "type": "Feature",
   "geometry": {
    "type": "Polygon",
    "coordinates": [
     [
      [
       7.776380318776239,
       36.92642765233386
      ],
      [
       7.775715430643673,
       36.92587996253217
      ],
      [
       7.777429482980826,
       36.92400468565725
      ],
      [
       7.77774897479961,
       36.925089650151094
      ],
      [
       7.776380318776239,
       36.92642765233386
      ]
     ]
    ]
   },
   "properties": {
    "value": 5,
    "area_km2": 0.0243,
    "label": "L5",
    "pixel_count": 27,
    "mean_rx": 973.01,
    "max_rx": 1096.22,
    "class": "BACKGROUND_WATER",
    "class_label": "Normal / background water",
    "class_confidence": 1.0,
    "is_primary": false
   }
  }
 ]
}