{
 "type": "FeatureCollection",
 "features": [
  {
   "type": "Feature",
   "geometry": {
    "type": "Polygon",
    "coordinates": [
     [
      [
       7.554601143470889,
       37.05914029187172
      ],
      [
       7.542018386039714,
       37.01139464537443
      ],
      [
       7.548173810899111,
       37.00687317580528
      ],
      [
       7.55426194544967,
       37.00586587081982
      ],
      [
       7.558087368081321,
       36.99969300912498
      ],
      [
       7.5582098914138,
       36.99320467645486
      ],
      [
       7.561258465253471,
       36.99243044399115
      ],
      [
       7.565052146821496,
       36.98787940731219
      ],
      [
       7.566395112208973,
       36.98816604605546
      ],
      [
       7.568125782839981,
       36.98575324819
      ],
      [
       7.579654227950567,
       36.98210601942171
      ],
      [
       7.5847791455798665,
       36.97838148390979
      ],
      [
       7.5895067251823845,
       36.977896932872355
      ],
      [
       7.593649878614044,
       36.97253786677663
      ],
      [
       7.603163462411466,
       36.968323605843736
      ],
      [
       7.606835191748283,
       36.97025963626008
      ],
      [
       7.612998210218985,
       36.964923559465525
      ],
      [
       7.619057816940804,
       36.9652646131588
      ],
      [
       7.619770703748936,
       36.963109602681975
      ],
      [
       7.622148555586312,
       36.96205557270473
      ],
      [
       7.623803877082198,
       36.963697249193395
      ],
      [
       7.627841969399772,
       36.964014403111015
      ],
      [
       7.6294732202430255,
       36.967007787319986
      ],
      [
       7.634917170567299,
       36.96409596778377
      ],
      [
       7.641987597400214,
       36.96444746938669
      ],
      [
       7.641949173176824,
       36.96661033576896
      ],
      [
       7.643614619565733,
       36.96771102879998
      ],
      [
       7.649665080200962,
       36.96859124461011
      ],
      [
       7.6492899210391005,
       36.97075028302351
      ],
      [
       7.651306829382476,
       36.971043627739355
      ],
      [
       7.6505995186973905,
       36.972928482406644
      ],
      [
       7.654248907266465,
       36.976214868752926
      ],
      [
       7.656612459828384,
       36.97597122736314
      ],
      [
       7.65455731575036,
       36.97784084356724
      ],
      [
       7.658563087714231,
       36.980049484772145
      ],
      [
       7.660613457725244,
       36.97845015890043
      ],
      [
       7.6599821668546495,
       36.9760093143817
      ],
      [
       7.66205133077652,
       36.973328519566074
      ],
      [
       7.660100675361788,
       36.96925031469389
      ],
      [
       7.665192572529361,
       36.967144366023774
      ],
      [
       7.6655531043840845,
       36.965796349526414
      ],
      [
       7.667214169617956,
       36.96716707898228
      ],
      [
       7.670920436825248,
       36.96720863004244
      ],
      [
       7.671233871073187,
       36.968564208870745
      ],
      [
       7.67530058058021,
       36.96725758674112
      ],
      [
       7.674570453078113,
       36.97049440659143
      ],
      [
       7.681239461251391,
       36.9746248910099
      ],
      [
       7.682938280100266,
       36.9738325091302
      ],
      [
       7.681665043525599,
       36.969491748731755
      ],
      [
       7.686821414456543,
       36.96359977825456
      ],
      [
       7.688824387187051,
       36.96470357524667
      ],
      [
       7.690532169024801,
       36.96337035019315
      ],
      [
       7.692613791094732,
       36.95987789717492
      ],
      [
       7.695599807071492,
       36.96261489174859
      ],
      [
       7.699661207381292,
       36.96157778407123
      ],
      [
       7.702310620377685,
       36.964310924471214
      ],
      [
       7.7047194868126985,
       36.96136266237346
      ],
      [
       7.70212515288737,
       36.95538519133894
      ],
      [
       7.7021893875175875,
       36.95160007505566
      ],
      [
       7.707620418418407,
       36.94922557018345
      ],
      [
       7.70927734205757,
       36.95086608871279
      ],
      [
       7.7116445202671775,
       36.95035096535671
      ],
      [
       7.714626325930966,
       36.95335785827301
      ],
      [
       7.718336525018127,
       36.95312754948584
      ],
      [
       7.720977290082619,
       36.95640101872457
      ],
      [
       7.727059373137757,
       36.95538471698284
      ],
      [
       7.72939064471743,
       36.95703218563994
      ],
      [
       7.731447907048383,
       36.954890853026114
      ],
      [
       7.733770307039355,
       36.95707897443246
      ],
      [
       7.740140187787007,
       36.959039652350306
      ],
      [
       7.743872817213687,
       36.957456701947144
      ],
      [
       7.746545862833923,
       36.958837035315646
      ],
      [
       7.755664369694359,
       36.95758086707816
      ],
      [
       7.758328859073448,
       36.95950168110239
      ],
      [
       7.763369417172339,
       36.960365540027524
      ],
      [
       7.76742984478036,
       36.95932609392793
      ],
      [
       7.772418412574956,
       36.963434036918706
      ],
      [
       7.775455119618845,
       36.96319497968341
      ],
      [
       7.775074868806789,
       36.96589522949084
      ],
      [
       7.77672496431282,
       36.96807558057621
      ],
      [
       7.781126894375571,
       36.96676876993731
      ],
      [
       7.782081730266188,
       36.970293993571055
      ],
      [
       7.784457664368611,
       36.96923667556992
      ],
      [
       7.786803494077781,
       36.970071923241846
      ],
      [
       7.788514014994755,
       36.968466886722815
      ],
      [
       7.789831869118754,
       36.97037324977364
      ],
      [
       7.7932057731061475,
       36.97013717714825
      ],
      [
       7.793905296701388,
       36.96852178062944
      ],
      [
       7.792570287575877,
       36.96769695768721
      ],
      [
       7.794950262923141,
       36.96636905077605
      ],
      [
       7.808642125087019,
       37.01761604424598
      ],
      [
       7.554601143470889,
       37.05914029187172
      ]
     ],
     [
      [
       7.620708259505344,
       36.96717668777644
      ],
      [
       7.622388020681405,
       36.96746660479305
      ],
      [
       7.621728789280687,
       36.96664771535803
      ],
      [
       7.620708259505344,
       36.96717668777644
      ]
     ]
    ]
   },
   "properties": {
    "value": 1,
    "area_km2": 178.49115
   }
  },
  {
   "type": "Feature",
   "geometry": {
    "type": "Polygon",
    "coordinates": [
     [
      [
       7.79427637062793,
       36.96636220869118
      ],
      [
       7.7902715290405595,
       36.9638877095074
      ],
      [
       7.788915224417659,
       36.96441471709738
      ],
      [
       7.787606067054614,
       36.96196759645142
      ],
      [
       7.782586625887955,
       36.959752892517926
      ],
      [
       7.780949464655759,
       36.95676149973386
      ],
      [
       7.7837349848948945,
       36.95111128980006
      ],
      [
       7.7810701275050596,
       36.94919103701293
      ],
      [
       7.777027706058108,
       36.94914947095992
      ],
      [
       7.775058454321749,
       36.9458841565702
      ],
      [
       7.771011873073252,
       36.94611276204929
      ],
      [
       7.7690125034413855,
       36.944739962524864
      ],
      [
       7.76784798256062,
       36.93337032266211
      ],
      [
       7.7641432136385,
       36.93333182718846
      ],
      [
       7.76151009061928,
       36.9295185405383
      ],
      [
       7.765712743835997,
       36.91955679971445
      ],
      [
       7.772512494332673,
       36.91557097810586
      ],
      [
       7.773285535489291,
       36.90935931674302
      ],
      [
       7.777334481871251,
       36.90886022138995
      ],
      [
       7.779674090619265,
       36.90996595846035
      ],
      [
       7.79427637062793,
       36.96636220869118
      ]
     ]
    ]
   },
   "properties": {
    "value": 3,
    "area_km2": 7.78095
   }
  },
  {
   "type": "Feature",
   "geometry": {
    "type": "Polygon",
    "coordinates": [
     [
      [
       7.775500155544377,
       36.897213269927114
      ],
      [
       7.765199394556948,
       36.88872363091512
      ],
      [
       7.766908493952176,
       36.887118858978056
      ],
      [
       7.765256006031153,
       36.88520875487193
      ],
      [
       7.766628445133624,
       36.88360048641376
      ],
      [
       7.763638476893571,
       36.8811356276429
      ],
      [
       7.764014266012543,
       36.87870575173699
      ],
      [
       7.768057295398541,
       36.87847731686603
      ],
      [
       7.768118097494657,
       36.874692055036455
      ],
      [
       7.770141672338529,
       36.87444259481206
      ],
      [
       7.775500155544377,
       36.897213269927114
      ]
     ],
     [
      [
       7.769592569866061,
       36.88768752566658
      ],
      [
       7.771271221751383,
       36.88797531798541
      ],
      [
       7.770611032620323,
       36.88715722731075
      ],
      [
       7.769592569866061,
       36.88768752566658
      ]
     ],
     [
      [
       7.767297255587497,
       36.88387784750979
      ],
      [
       7.768315682288466,
       36.88334756785698
      ],
      [
       7.767664254427863,
       36.88198871036778
      ],
      [
       7.766645841701784,
       36.88251898480559
      ],
      [
       7.767297255587497,
       36.88387784750979
      ]
     ]
    ]
   },
   "properties": {
    "value": 7,
    "area_km2": 1.13355
   }
  },
  {
   "type": "Feature",
   "geometry": {
    "type": "Polygon",
    "coordinates": [
     [
      [
       7.778029428548604,
       36.907515273389755
      ],
      [
       7.776402142563767,
       36.903983064830406
      ],
      [
       7.7707178129007115,
       36.901490601318415
      ],
      [
       7.766100390799726,
       36.89549349485589
      ],
      [
       7.777757446862571,
       36.903456176951096
      ],
      [
       7.778029428548604,
       36.907515273389755
      ]
     ]
    ]
   },
   "properties": {
    "value": 6,
    "area_km2": 0.2232
   }
  }
 ]
}