{
    "type": "FeatureCollection",
    "features": [
        {
            "type": "Feature",
            "properties": {
                "label": "shawka_dam"
            },
            "geometry": {
                "type": "Polygon",
                "coordinates": [
                    [
                        [
                            56.043248,
                            25.10721
                        ],
                        [
                            56.042823,
                            25.10681
                        ],
                        [
                            56.042644,
                            25.106416
                        ],
                        [
                            56.042655,
                            25.106123
                        ],
                        [
                            56.042398,
                            25.105806
                        ],
                        [
                            56.042316,
                            25.105322
                        ],
                        [
                            56.040957,
                            25.103961
                        ],
                        [
                            56.041142,
                            25.103663
                        ],
                        [
                            56.041633,
                            25.103523
                        ],
                        [
                            56.042158,
                            25.104045
                        ],
                        [
                            56.04222,
                            25.104026
                        ],
                        [
                            56.042426,
                            25.104399
                        ],
                        [
                            56.042632,
                            25.104977
                        ],
                        [
                            56.042899,
                            25.105498
                        ],
                        [
                            56.042971,
                            25.105508
                        ],
                        [
                            56.043418,
                            25.105283
                        ],
                        [
                            56.043464,
                            25.105367
                        ],
                        [
                            56.043371,
                            25.105576
                        ],
                        [
                            56.043479,
                            25.105799
                        ],
                        [
                            56.043587,
                            25.105771
                        ],
                        [
                            56.043911,
                            25.105534
                        ],
                        [
                            56.044142,
                            25.105436
                        ],
                        [
                            56.044327,
                            25.105339
                        ],
                        [
                            56.044419,
                            25.105213
                        ],
                        [
                            56.044527,
                            25.105046
                        ],
                        [
                            56.044789,
                            25.104962
                        ],
                        [
                            56.045097,
                            25.104962
                        ],
                        [
                            56.045374,
                            25.105046
                        ],
                        [
                            56.045636,
                            25.105116
                        ],
                        [
                            56.046037,
                            25.10492
                        ],
                        [
                            56.046221,
                            25.104599
                        ],
                        [
                            56.045898,
                            25.103372
                        ],
                        [
                            56.04616,
                            25.103135
                        ],
                        [
                            56.047007,
                            25.103107
                        ],
                        [
                            56.046946,
                            25.103344
                        ],
                        [
                            56.046607,
                            25.103525
                        ],
                        [
                            56.046406,
                            25.103693
                        ],
                        [
                            56.046791,
                            25.104934
                        ],
                        [
                            56.04673,
                            25.105297
                        ],
                        [
                            56.046406,
                            25.105605
                        ],
                        [
                            56.045621,
                            25.105689
                        ],
                        [
                            56.044943,
                            25.105717
                        ],
                        [
                            56.044635,
                            25.105759
                        ],
                        [
                            56.044496,
                            25.105898
                        ],
                        [
                            56.044342,
                            25.10608
                        ],
                        [
                            56.044311,
                            25.106442
                        ],
                        [
                            56.044126,
                            25.106679
                        ],
                        [
                            56.044111,
                            25.106972
                        ],
                        [
                            56.043957,
                            25.107196
                        ],
                        [
                            56.043248,
                            25.10721
                        ]
                    ]
                ]
            },
            "bbox": [
                56.040957,
                25.103107,
                56.047007,
                25.10721
            ]
        }
    ]
}